{"type":"FeatureCollection","name":"mellanomraden","source":"https://geodata-external.sbk.goteborg.se/services/slk-administrativ-indelning-v2/wfs (layer slk-administrativ-indelning-v2:mellanomraden, EPSG:4326)","note":"Simplified to about 10 m tolerance (shapely, preserve_topology). Coordinates in EPSG:4326.","features":[{"type":"Feature","id":"mellanomraden.1384013","properties":{"id":"mellanomraden.1384013","nr":"56","namn":"Frölunda Torg-Tofta","area_km2":1.4,"stadsomrade":"Sydväst"},"geometry":{"type":"Polygon","coordinates":[[[11.899142,57.658488],[11.898618,57.658176],[11.897623,57.658069],[11.896255,57.657541],[11.899504,57.655255],[11.902358,57.653589],[11.906118,57.651751],[11.910355,57.650034],[11.915328,57.648372],[11.921632,57.646865],[11.924358,57.64641],[11.927316,57.646119],[11.932532,57.645946],[11.932593,57.646479],[11.932124,57.647205],[11.931672,57.647402],[11.933105,57.648836],[11.932367,57.649223],[11.927256,57.649893],[11.924417,57.650096],[11.924696,57.651164],[11.92384,57.651239],[11.924128,57.651861],[11.923903,57.652961],[11.924188,57.65379],[11.923227,57.653853],[11.923093,57.655574],[11.922416,57.655667],[11.919867,57.656762],[11.918341,57.656608],[11.917874,57.656738],[11.917727,57.656622],[11.916571,57.657034],[11.91144,57.656904],[11.911304,57.65742],[11.906913,57.657163],[11.906896,57.656619],[11.906848,57.657366],[11.904906,57.657192],[11.904582,57.658234],[11.90407,57.658188],[11.903443,57.658531],[11.903789,57.658733],[11.902756,57.659663],[11.902162,57.659754],[11.902138,57.65908],[11.901273,57.659001],[11.899938,57.660494],[11.898753,57.660437],[11.899142,57.658488]]]}},{"type":"Feature","id":"mellanomraden.1384014","properties":{"id":"mellanomraden.1384014","nr":"70","namn":"Kärra-Rödbo","area_km2":34.9,"stadsomrade":"Hisingen"},"geometry":{"type":"Polygon","coordinates":[[[11.901496,57.833793],[11.905617,57.833046],[11.906939,57.833183],[11.909053,57.833697],[11.909542,57.833647],[11.912792,57.834377],[11.914903,57.83462],[11.917808,57.835262],[11.920199,57.835563],[11.920709,57.835303],[11.92109,57.835379],[11.921351,57.834886],[11.927239,57.831155],[11.935394,57.828968],[11.947739,57.824699],[11.951992,57.823373],[11.960518,57.821295],[11.967672,57.819939],[11.958081,57.808674],[11.957021,57.804956],[11.957001,57.804534],[11.959823,57.804554],[11.960281,57.80195],[11.961855,57.801875],[11.96087,57.798358],[11.956758,57.798806],[11.956558,57.794376],[11.965051,57.793742],[11.965006,57.792834],[11.965749,57.791964],[11.962565,57.791107],[11.964382,57.786879],[11.963533,57.78646],[11.962839,57.786385],[11.962733,57.786058],[11.961758,57.785578],[11.962802,57.782281],[11.966589,57.780187],[11.964258,57.775943],[11.98976,57.772341],[11.990468,57.77193],[11.991858,57.772141],[11.992102,57.771963],[11.992695,57.771911],[11.993467,57.772267],[11.993383,57.771812],[11.994852,57.771661],[11.995324,57.771832],[11.995539,57.77243],[11.996731,57.772523],[11.998204,57.776706],[11.999064,57.776679],[12.00013,57.777009],[12.003513,57.776859],[12.003558,57.776494],[12.004851,57.77645],[12.004478,57.779774],[12.005227,57.782537],[12.006572,57.785423],[12.008334,57.788197],[12.009089,57.790076],[12.012149,57.794316],[12.013902,57.800001],[12.014035,57.813242],[12.012294,57.819028],[12.010338,57.823339],[12.009988,57.825628],[12.008762,57.82846],[12.008719,57.83274],[12.010843,57.844505],[12.010097,57.845283],[12.009235,57.848167],[12.007451,57.852547],[12.008173,57.854595],[12.011522,57.857559],[12.013761,57.860825],[12.008855,57.860436],[12.003468,57.860367],[12.001735,57.860002],[11.99739,57.859985],[11.996019,57.860307],[11.995125,57.860803],[11.994216,57.861679],[11.990166,57.863339],[11.989362,57.863064],[11.988699,57.862602],[11.986237,57.862466],[11.983682,57.862803],[11.976431,57.86447],[11.974547,57.864585],[11.973611,57.864792],[11.969685,57.864316],[11.968057,57.863697],[11.966238,57.862599],[11.965136,57.860039],[11.963488,57.858374],[11.959775,57.855551],[11.958422,57.85519],[11.956141,57.852738],[11.955834,57.851827],[11.954169,57.849176],[11.952679,57.847729],[11.951363,57.847102],[11.949285,57.846895],[11.945031,57.848482],[11.942718,57.848347],[11.937875,57.847161],[11.936006,57.846417],[11.932647,57.844608],[11.930504,57.843956],[11.926875,57.843466],[11.924367,57.843398],[11.921557,57.843546],[11.917898,57.84422],[11.913021,57.845617],[11.911358,57.84584],[11.910209,57.845612],[11.907889,57.845579],[11.905836,57.844965],[11.904748,57.844369],[11.903584,57.843252],[11.903011,57.841053],[11.903119,57.837213],[11.901496,57.833793]]]}},{"type":"Feature","id":"mellanomraden.1384015","properties":{"id":"mellanomraden.1384015","nr":"55","namn":"Centrala Tynnered","area_km2":3.3,"stadsomrade":"Sydväst"},"geometry":{"type":"Polygon","coordinates":[[[11.881576,57.657085],[11.881889,57.656849],[11.883246,57.657122],[11.884213,57.656749],[11.885878,57.655445],[11.886926,57.655247],[11.887187,57.655338],[11.887423,57.655099],[11.888348,57.655335],[11.88896,57.655079],[11.889038,57.654602],[11.889803,57.654755],[11.891115,57.654017],[11.89287,57.653796],[11.891512,57.652383],[11.889336,57.650685],[11.892458,57.648315],[11.894631,57.645238],[11.894831,57.6448],[11.894668,57.643558],[11.898025,57.638539],[11.897909,57.635839],[11.898212,57.634571],[11.902151,57.634861],[11.90438,57.635307],[11.911918,57.638082],[11.913518,57.636834],[11.914108,57.637063],[11.914747,57.637663],[11.919065,57.639443],[11.920174,57.639647],[11.922378,57.639694],[11.924211,57.640003],[11.927581,57.641222],[11.927924,57.641487],[11.9281,57.641408],[11.92847,57.641531],[11.929137,57.642152],[11.928444,57.642941],[11.928632,57.643548],[11.929178,57.643713],[11.9316,57.643889],[11.931301,57.644469],[11.931746,57.644663],[11.931728,57.645289],[11.932496,57.645542],[11.932532,57.645946],[11.925723,57.646255],[11.920498,57.647092],[11.916615,57.648011],[11.912991,57.649096],[11.907383,57.651199],[11.903368,57.653063],[11.899504,57.655255],[11.896148,57.657622],[11.892326,57.66097],[11.888952,57.659913],[11.881576,57.657085]]]}},{"type":"Feature","id":"mellanomraden.1384016","properties":{"id":"mellanomraden.1384016","nr":"80","namn":"Västra Biskopsgården","area_km2":6.8,"stadsomrade":"Hisingen"},"geometry":{"type":"Polygon","coordinates":[[[11.895856,57.733385],[11.899097,57.737742],[11.89997,57.738424],[11.901416,57.739162],[11.900402,57.739871],[11.898795,57.740293],[11.898839,57.740962],[11.896812,57.742385],[11.892569,57.74016],[11.891983,57.740999],[11.892901,57.741325],[11.892382,57.741429],[11.887891,57.741223],[11.886704,57.741827],[11.886579,57.743242],[11.88733,57.743256],[11.887425,57.743622],[11.889929,57.743716],[11.890249,57.744076],[11.888017,57.744625],[11.886653,57.744722],[11.885661,57.743988],[11.885282,57.743256],[11.88318,57.74319],[11.881661,57.743862],[11.881562,57.745789],[11.882804,57.745812],[11.883319,57.746518],[11.881455,57.747067],[11.880982,57.746911],[11.880444,57.747103],[11.880128,57.746715],[11.876707,57.746917],[11.876502,57.747602],[11.877281,57.747664],[11.876851,57.749211],[11.873978,57.750195],[11.872825,57.746952],[11.872766,57.745955],[11.872992,57.743959],[11.875089,57.738286],[11.875193,57.736727],[11.874678,57.734224],[11.87397,57.73271],[11.872573,57.730629],[11.868069,57.724794],[11.864466,57.721206],[11.863234,57.71956],[11.861138,57.716361],[11.860967,57.714783],[11.861562,57.71379],[11.863056,57.712726],[11.877262,57.705618],[11.879313,57.70485],[11.881275,57.704426],[11.881265,57.703725],[11.884228,57.703642],[11.890851,57.704008],[11.891552,57.70375],[11.891717,57.705872],[11.890984,57.708184],[11.891104,57.708857],[11.891986,57.709581],[11.892665,57.709823],[11.893362,57.709814],[11.894357,57.710402],[11.895549,57.711354],[11.896598,57.712574],[11.896243,57.712866],[11.896678,57.714398],[11.896755,57.716035],[11.89576,57.71837],[11.89412,57.720365],[11.893846,57.721433],[11.893442,57.721419],[11.892984,57.725248],[11.893083,57.725815],[11.893388,57.725824],[11.894097,57.728612],[11.895856,57.733385]]]}},{"type":"Feature","id":"mellanomraden.1384017","properties":{"id":"mellanomraden.1384017","nr":"12","namn":"Gamlestaden-Utby","area_km2":11.3,"stadsomrade":"Nordost"},"geometry":{"type":"Polygon","coordinates":[[[12.060421,57.734436],[12.067178,57.734947],[12.071536,57.734866],[12.074899,57.735041],[12.076884,57.734784],[12.079649,57.735462],[12.080126,57.735806],[12.080679,57.735923],[12.078759,57.74115],[12.079674,57.741409],[12.079431,57.742339],[12.077416,57.742307],[12.075742,57.74199],[12.074388,57.741998],[12.074136,57.742187],[12.073606,57.742193],[12.071918,57.742794],[12.071922,57.74323],[12.07164,57.743409],[12.070218,57.743256],[12.069215,57.74243],[12.069561,57.742432],[12.069227,57.742156],[12.068956,57.742258],[12.068291,57.741966],[12.067309,57.741861],[12.066289,57.74294],[12.06332,57.742671],[12.061427,57.743683],[12.059696,57.744021],[12.058634,57.743399],[12.056845,57.74355],[12.055498,57.74455],[12.056613,57.744966],[12.055506,57.74572],[12.053516,57.74611],[12.053452,57.747102],[12.05242,57.748381],[12.048424,57.747717],[12.048526,57.747628],[12.047911,57.747473],[12.047806,57.747614],[12.046811,57.747455],[12.040784,57.747329],[12.041599,57.747101],[12.040632,57.746921],[12.039295,57.74691],[12.039061,57.745459],[12.039512,57.744985],[12.038906,57.744688],[12.039177,57.744267],[12.038194,57.744122],[12.037203,57.743639],[12.035546,57.743585],[12.034701,57.742618],[12.034069,57.742641],[12.032978,57.74304],[12.032346,57.743739],[12.029573,57.741729],[12.02893,57.742078],[12.028984,57.742246],[12.027987,57.742469],[12.0261,57.743642],[12.023576,57.744509],[12.023836,57.744701],[12.022979,57.744996],[12.022651,57.744817],[12.019672,57.745962],[12.01957,57.74588],[12.01402,57.747055],[12.013872,57.747235],[12.014121,57.75072],[12.021152,57.764119],[12.020158,57.763954],[12.019364,57.764475],[12.018913,57.76446],[12.018445,57.764006],[12.015257,57.762678],[12.014481,57.761378],[12.014015,57.761464],[12.013609,57.762217],[12.012618,57.76227],[12.011267,57.762019],[12.010862,57.761774],[12.010668,57.76118],[12.010029,57.760526],[12.009579,57.760411],[12.007845,57.760876],[12.006251,57.760455],[12.005409,57.760543],[12.003557,57.761697],[12.001538,57.763475],[12.00046,57.762932],[11.99952,57.76222],[11.998836,57.761343],[11.998458,57.760246],[11.998412,57.759055],[12.002617,57.750121],[12.003944,57.746449],[12.003896,57.745695],[12.003188,57.743802],[12.001965,57.741826],[11.998396,57.737128],[11.996261,57.733904],[11.991464,57.72593],[11.989914,57.724291],[11.986679,57.721896],[11.990974,57.718179],[11.992103,57.717366],[11.993344,57.716769],[11.994836,57.714848],[11.994579,57.713882],[11.996065,57.714117],[11.995239,57.715867],[12.001146,57.719237],[12.003011,57.72067],[12.004864,57.721794],[12.005795,57.722229],[12.009136,57.722974],[12.008952,57.72338],[12.015949,57.724428],[12.021473,57.724166],[12.02244,57.723965],[12.024674,57.723994],[12.033621,57.725665],[12.047314,57.728959],[12.05489,57.730543],[12.054103,57.733865],[12.05789,57.7341],[12.060421,57.734436]]]}},{"type":"Feature","id":"mellanomraden.1384018","properties":{"id":"mellanomraden.1384018","nr":"33","namn":"Guldheden-Landala","area_km2":1.7,"stadsomrade":"Centrum"},"geometry":{"type":"Polygon","coordinates":[[[11.973191,57.693621],[11.970947,57.696539],[11.970648,57.696479],[11.97016,57.696059],[11.968956,57.695495],[11.966624,57.695186],[11.966725,57.69422],[11.96539,57.694217],[11.964729,57.694001],[11.963244,57.693865],[11.961912,57.692612],[11.961553,57.692708],[11.961,57.692196],[11.960349,57.69132],[11.959946,57.690443],[11.960017,57.69007],[11.959097,57.689308],[11.959946,57.689006],[11.960784,57.688437],[11.961472,57.688644],[11.961661,57.688509],[11.961849,57.687901],[11.961153,57.687647],[11.961638,57.68692],[11.962228,57.686514],[11.962065,57.686463],[11.962629,57.685439],[11.963027,57.685205],[11.963734,57.684206],[11.964901,57.681365],[11.965951,57.680557],[11.968646,57.679117],[11.968188,57.678746],[11.965333,57.678246],[11.965018,57.677775],[11.966251,57.677478],[11.965744,57.677187],[11.966311,57.676914],[11.966092,57.676763],[11.967446,57.676039],[11.968299,57.675819],[11.969698,57.676909],[11.969224,57.676946],[11.969555,57.677462],[11.971679,57.677066],[11.982486,57.677589],[11.98296,57.67777],[11.982986,57.677614],[11.984151,57.67767],[11.984822,57.67784],[11.984712,57.678061],[11.984291,57.678055],[11.984374,57.678748],[11.984056,57.679413],[11.984617,57.679529],[11.983966,57.680695],[11.982323,57.680345],[11.982124,57.680603],[11.981422,57.680766],[11.979179,57.683617],[11.978861,57.683483],[11.976937,57.685218],[11.977067,57.685441],[11.977443,57.685534],[11.977297,57.685696],[11.976292,57.685806],[11.972352,57.689476],[11.973472,57.690184],[11.973818,57.69234],[11.973191,57.693621]]]}},{"type":"Feature","id":"mellanomraden.1384019","properties":{"id":"mellanomraden.1384019","nr":"38","namn":"Lunden-Härlanda-Överås","area_km2":2.6,"stadsomrade":"Centrum"},"geometry":{"type":"Polygon","coordinates":[[[12.02534,57.718078],[12.023787,57.718183],[12.021353,57.718776],[12.018895,57.718058],[12.015051,57.717333],[12.008686,57.716724],[12.006882,57.716775],[12.004277,57.715789],[12.004185,57.71556],[12.005251,57.714262],[12.003763,57.713964],[12.0022,57.713204],[12.000812,57.711312],[11.999227,57.709802],[11.998776,57.709734],[11.998361,57.709105],[11.997622,57.706585],[11.998063,57.706303],[11.998604,57.70391],[11.998104,57.703881],[11.998125,57.704202],[11.997676,57.70425],[11.997663,57.704585],[11.996221,57.704739],[11.996282,57.704941],[11.995449,57.704826],[11.994819,57.702089],[11.99593,57.697679],[11.996309,57.697933],[11.996286,57.698572],[11.998765,57.699273],[11.998567,57.698746],[11.999211,57.698565],[11.999579,57.698226],[12.0021,57.698706],[12.002652,57.699175],[12.003105,57.699274],[12.008372,57.699297],[12.011802,57.69964],[12.016384,57.700855],[12.015952,57.701322],[12.013584,57.701986],[12.013452,57.703614],[12.014488,57.703608],[12.014462,57.705135],[12.014753,57.705733],[12.017983,57.705169],[12.018282,57.705678],[12.019348,57.705517],[12.021275,57.705603],[12.020572,57.708533],[12.023908,57.708696],[12.023875,57.712316],[12.02524,57.716179],[12.02534,57.718078]]]}},{"type":"Feature","id":"mellanomraden.1384020","properties":{"id":"mellanomraden.1384020","nr":"74","namn":"Norra Älvstranden","area_km2":4.6,"stadsomrade":"Hisingen"},"geometry":{"type":"Polygon","coordinates":[[[11.963593,57.718403],[11.96277,57.719559],[11.961403,57.720122],[11.959531,57.720384],[11.955757,57.720474],[11.953671,57.718383],[11.943268,57.712708],[11.941656,57.712413],[11.932806,57.711864],[11.930265,57.711474],[11.929547,57.711162],[11.927494,57.710724],[11.922176,57.70987],[11.918412,57.709747],[11.918493,57.707772],[11.917863,57.707059],[11.916367,57.706233],[11.911802,57.704595],[11.911148,57.703897],[11.910941,57.702516],[11.910607,57.702379],[11.910139,57.70259],[11.908238,57.70173],[11.908183,57.70151],[11.903817,57.700592],[11.903685,57.700777],[11.901825,57.700415],[11.897776,57.700097],[11.894479,57.700726],[11.896475,57.698269],[11.896373,57.698113],[11.898781,57.695354],[11.901893,57.690484],[11.904743,57.69148],[11.907659,57.693082],[11.910047,57.693522],[11.91113,57.693947],[11.912328,57.694792],[11.912007,57.695113],[11.913149,57.695581],[11.914335,57.696566],[11.91932,57.698897],[11.922948,57.699522],[11.928212,57.700794],[11.943083,57.702071],[11.949854,57.703648],[11.951317,57.704216],[11.956084,57.707059],[11.961675,57.711972],[11.967762,57.714831],[11.963593,57.718403]]]}},{"type":"Feature","id":"mellanomraden.1384021","properties":{"id":"mellanomraden.1384021","nr":"72","namn":"Kvillebäcken","area_km2":3.7,"stadsomrade":"Hisingen"},"geometry":{"type":"Polygon","coordinates":[[[11.943544,57.720353],[11.944507,57.719788],[11.949087,57.71977],[11.94901,57.719475],[11.950543,57.719024],[11.952088,57.719807],[11.952708,57.719865],[11.954657,57.719383],[11.955757,57.720474],[11.959531,57.720384],[11.961403,57.720122],[11.962957,57.719411],[11.963593,57.718403],[11.967762,57.714831],[11.971315,57.716515],[11.986679,57.721896],[11.985587,57.722678],[11.981162,57.724859],[11.980855,57.724795],[11.979223,57.726051],[11.976226,57.725633],[11.973432,57.725638],[11.971401,57.725851],[11.964706,57.727038],[11.962893,57.727503],[11.960757,57.728438],[11.9598,57.729088],[11.95886,57.730107],[11.955749,57.729987],[11.952324,57.729654],[11.952044,57.729017],[11.948918,57.729182],[11.948776,57.728377],[11.945795,57.727263],[11.92745,57.728259],[11.923663,57.728972],[11.921505,57.729746],[11.919489,57.730827],[11.918596,57.730393],[11.920042,57.729605],[11.922636,57.728547],[11.922316,57.728316],[11.919795,57.728392],[11.917569,57.723974],[11.918381,57.723951],[11.918941,57.722127],[11.918232,57.722107],[11.918777,57.721929],[11.919177,57.721197],[11.919964,57.720486],[11.919245,57.720407],[11.919463,57.720142],[11.919106,57.719461],[11.920024,57.719465],[11.920263,57.718986],[11.918925,57.718782],[11.919247,57.718411],[11.931624,57.720182],[11.934334,57.720764],[11.933872,57.719418],[11.934355,57.719253],[11.93518,57.720005],[11.937563,57.720556],[11.942048,57.720511],[11.943544,57.720353]]]}},{"type":"Feature","id":"mellanomraden.1384022","properties":{"id":"mellanomraden.1384022","nr":"75","namn":"Södra Torslanda","area_km2":73.9,"stadsomrade":"Hisingen"},"geometry":{"type":"Polygon","coordinates":[[[11.881948,57.688722],[11.889548,57.687337],[11.890077,57.687385],[11.892562,57.688569],[11.897724,57.68928],[11.901893,57.690484],[11.898781,57.695354],[11.896373,57.698113],[11.896475,57.698269],[11.894706,57.70036],[11.89325,57.703003],[11.892377,57.703827],[11.891586,57.704188],[11.891552,57.70375],[11.890851,57.704008],[11.884228,57.703642],[11.881265,57.703725],[11.881275,57.704426],[11.878745,57.705023],[11.87512,57.706661],[11.863056,57.712726],[11.862139,57.713292],[11.861227,57.714222],[11.860909,57.715762],[11.861863,57.717531],[11.864466,57.721206],[11.868069,57.724794],[11.870904,57.728433],[11.873321,57.731708],[11.874678,57.734224],[11.875193,57.736727],[11.874869,57.739251],[11.873055,57.74379],[11.871934,57.744587],[11.867683,57.745094],[11.861864,57.740404],[11.855974,57.738471],[11.855182,57.737944],[11.854559,57.736965],[11.84373,57.735469],[11.843565,57.7357],[11.841754,57.735885],[11.841698,57.736093],[11.842443,57.736929],[11.842478,57.737861],[11.842727,57.738],[11.842309,57.738588],[11.841935,57.738745],[11.841206,57.738432],[11.840831,57.737982],[11.839412,57.737472],[11.838383,57.736149],[11.834986,57.737458],[11.832612,57.736968],[11.831585,57.736339],[11.832572,57.735444],[11.832074,57.735067],[11.832422,57.734799],[11.832958,57.734718],[11.832888,57.734323],[11.83252,57.734219],[11.831925,57.734366],[11.830804,57.734208],[11.829949,57.734279],[11.82946,57.734127],[11.829156,57.733792],[11.828202,57.734009],[11.826649,57.738066],[11.826657,57.738653],[11.826471,57.738565],[11.826666,57.739255],[11.826358,57.739258],[11.827524,57.739414],[11.828592,57.739113],[11.829415,57.739343],[11.827991,57.740079],[11.827301,57.740321],[11.826989,57.740234],[11.826692,57.740793],[11.827232,57.740953],[11.825798,57.741712],[11.82393,57.742126],[11.822536,57.741852],[11.821217,57.741198],[11.820529,57.74031],[11.820756,57.738629],[11.820442,57.738557],[11.820761,57.738587],[11.821062,57.736355],[11.821503,57.736277],[11.821592,57.735772],[11.821334,57.733013],[11.821551,57.7329],[11.821511,57.729902],[11.813978,57.729993],[11.814284,57.727576],[11.813974,57.725802],[11.812577,57.725753],[11.807961,57.72508],[11.805414,57.730918],[11.801324,57.73034],[11.799829,57.731381],[11.79997,57.732062],[11.799386,57.732596],[11.800415,57.733499],[11.79472,57.733298],[11.793646,57.733808],[11.792852,57.733895],[11.792085,57.734639],[11.790606,57.735314],[11.790534,57.735498],[11.790169,57.735533],[11.787144,57.735291],[11.786145,57.735444],[11.782649,57.735291],[11.781055,57.735436],[11.779513,57.735151],[11.778544,57.735461],[11.777969,57.73543],[11.776633,57.734849],[11.77462,57.73498],[11.773511,57.734679],[11.772896,57.735026],[11.771401,57.735071],[11.770152,57.735464],[11.767995,57.735689],[11.764086,57.736746],[11.753479,57.735748],[11.732681,57.740475],[11.732441,57.741198],[11.730991,57.741403],[11.718467,57.74611],[11.706798,57.73327],[11.698295,57.721731],[11.698911,57.715824],[11.694331,57.70693],[11.690941,57.702539],[11.695772,57.690459],[11.697892,57.673799],[11.704227,57.665158],[11.732063,57.664915],[11.752305,57.671234],[11.758415,57.671453],[11.764469,57.671365],[11.769533,57.672168],[11.773803,57.672622],[11.784311,57.674299],[11.820299,57.674952],[11.821917,57.676102],[11.819508,57.678241],[11.832788,57.683858],[11.835801,57.686228],[11.836006,57.688339],[11.837023,57.689922],[11.840676,57.68975],[11.84083,57.689406],[11.842202,57.688846],[11.843204,57.688088],[11.844357,57.686579],[11.844663,57.685617],[11.845738,57.685554],[11.848352,57.685777],[11.866725,57.685748],[11.868472,57.686099],[11.869894,57.686797],[11.87058,57.68747],[11.871666,57.689286],[11.877413,57.688164],[11.881948,57.688722]]]}},{"type":"Feature","id":"mellanomraden.1384023","properties":{"id":"mellanomraden.1384023","nr":"54","namn":"Bratthammar-Näset-Önnered","area_km2":26.4,"stadsomrade":"Sydväst"},"geometry":{"type":"Polygon","coordinates":[[[11.875825,57.655253],[11.871556,57.654504],[11.870619,57.654134],[11.869405,57.653229],[11.86838,57.651875],[11.867715,57.650527],[11.867663,57.648711],[11.868057,57.646495],[11.86725,57.645635],[11.863124,57.644366],[11.862082,57.644248],[11.862209,57.643772],[11.861376,57.643413],[11.856753,57.643042],[11.857878,57.641643],[11.858521,57.641297],[11.858064,57.641251],[11.853091,57.642486],[11.848207,57.640476],[11.841678,57.639132],[11.841316,57.639393],[11.839928,57.638447],[11.837589,57.637752],[11.84415,57.635177],[11.846436,57.633313],[11.847707,57.631983],[11.849892,57.630588],[11.853436,57.629783],[11.854716,57.62967],[11.855449,57.629197],[11.856055,57.626813],[11.854961,57.624769],[11.849592,57.6238],[11.847314,57.624639],[11.844105,57.624611],[11.840791,57.62376],[11.839512,57.619001],[11.831426,57.61046],[11.831015,57.607066],[11.83154,57.606257],[11.833515,57.605558],[11.834898,57.604315],[11.835253,57.60296],[11.83442,57.601741],[11.840846,57.591926],[11.842405,57.589949],[11.861462,57.573396],[11.892238,57.596209],[11.894473,57.598537],[11.896628,57.601916],[11.901098,57.604804],[11.90981,57.613418],[11.912185,57.614002],[11.914335,57.615344],[11.915449,57.617311],[11.915917,57.617281],[11.916182,57.618269],[11.917421,57.61984],[11.915264,57.619847],[11.913284,57.6202],[11.911213,57.621145],[11.910525,57.622479],[11.911544,57.623659],[11.911532,57.624615],[11.909754,57.628122],[11.908959,57.629077],[11.908687,57.629925],[11.908615,57.630938],[11.909876,57.634273],[11.910979,57.634772],[11.91166,57.635324],[11.911225,57.635664],[11.913518,57.636834],[11.911918,57.638082],[11.90438,57.635307],[11.902151,57.634861],[11.898212,57.634571],[11.897909,57.635839],[11.898025,57.638539],[11.894668,57.643558],[11.894831,57.6448],[11.894631,57.645238],[11.892458,57.648315],[11.889336,57.650685],[11.891512,57.652383],[11.89287,57.653796],[11.891115,57.654017],[11.889803,57.654755],[11.889038,57.654602],[11.88896,57.655079],[11.888348,57.655335],[11.887423,57.655099],[11.887187,57.655338],[11.886926,57.655247],[11.885878,57.655445],[11.884213,57.656749],[11.883159,57.657138],[11.881889,57.656849],[11.881576,57.657085],[11.87801,57.655809],[11.875825,57.655253]]]}},{"type":"Feature","id":"mellanomraden.1384024","properties":{"id":"mellanomraden.1384024","nr":"13","namn":"Kortedala","area_km2":4.4,"stadsomrade":"Nordost"},"geometry":{"type":"Polygon","coordinates":[[[12.048557,57.766974],[12.048181,57.767039],[12.047392,57.766857],[12.046182,57.767643],[12.04553,57.768815],[12.043141,57.768736],[12.04222,57.768866],[12.040517,57.768494],[12.040202,57.76852],[12.039553,57.768987],[12.039146,57.768757],[12.038703,57.767691],[12.037563,57.767101],[12.034639,57.766778],[12.033941,57.766831],[12.032424,57.76735],[12.031229,57.766478],[12.030256,57.766363],[12.030021,57.765832],[12.027262,57.765769],[12.026765,57.765638],[12.026454,57.765166],[12.025868,57.76487],[12.024694,57.764803],[12.024236,57.764639],[12.021328,57.764542],[12.014121,57.75072],[12.01402,57.747055],[12.01957,57.74588],[12.019672,57.745962],[12.022651,57.744817],[12.022979,57.744996],[12.023836,57.744701],[12.023576,57.744509],[12.0261,57.743642],[12.027987,57.742469],[12.028984,57.742246],[12.02893,57.742078],[12.029573,57.741729],[12.032346,57.743739],[12.032978,57.74304],[12.034069,57.742641],[12.034701,57.742618],[12.035546,57.743585],[12.037203,57.743639],[12.038194,57.744122],[12.039177,57.744267],[12.038906,57.744688],[12.039512,57.744985],[12.039061,57.745459],[12.039295,57.74691],[12.040632,57.746921],[12.041599,57.747101],[12.040784,57.747329],[12.046811,57.747455],[12.04761,57.747581],[12.047007,57.748472],[12.046813,57.74937],[12.047621,57.751403],[12.046081,57.751918],[12.046827,57.752655],[12.047357,57.754081],[12.048661,57.75468],[12.04889,57.75498],[12.048346,57.755244],[12.047185,57.755035],[12.044605,57.755501],[12.045545,57.756572],[12.046664,57.756719],[12.046502,57.757432],[12.047009,57.757858],[12.047126,57.75845],[12.046371,57.758806],[12.046238,57.759799],[12.046932,57.760247],[12.047946,57.761607],[12.049016,57.762585],[12.050085,57.765037],[12.049149,57.765848],[12.048563,57.766069],[12.048337,57.766494],[12.048557,57.766974]]]}},{"type":"Feature","id":"mellanomraden.1384025","properties":{"id":"mellanomraden.1384025","nr":"31","namn":"Kallebäck-Skår-Kärralund","area_km2":6.9,"stadsomrade":"Centrum"},"geometry":{"type":"Polygon","coordinates":[[[12.017983,57.705169],[12.014753,57.705733],[12.014462,57.705135],[12.014488,57.703608],[12.013452,57.703614],[12.013584,57.701986],[12.015952,57.701322],[12.016384,57.700855],[12.012409,57.699741],[12.010787,57.699512],[12.007199,57.699259],[12.003995,57.699362],[12.003105,57.699274],[12.002652,57.699175],[12.0021,57.698706],[11.999579,57.698226],[11.999211,57.698565],[11.998567,57.698746],[11.998765,57.699273],[11.996418,57.698627],[11.996203,57.698438],[11.996309,57.697933],[11.99593,57.697679],[11.996263,57.695853],[11.998223,57.690544],[12.002545,57.685638],[12.002332,57.68573],[12.002684,57.685209],[12.002925,57.685216],[12.003133,57.684993],[12.00717,57.679225],[12.00835,57.679358],[12.008831,57.678594],[12.009375,57.678602],[12.009933,57.677809],[12.013393,57.677633],[12.013488,57.677515],[12.016835,57.677459],[12.018435,57.675783],[12.022685,57.673194],[12.023343,57.673455],[12.023224,57.675574],[12.025869,57.675458],[12.027111,57.675738],[12.029233,57.675311],[12.031007,57.675425],[12.030995,57.675234],[12.036516,57.674992],[12.042359,57.676286],[12.049495,57.675981],[12.056237,57.678082],[12.055179,57.678532],[12.054304,57.678336],[12.052377,57.678623],[12.051662,57.678946],[12.051343,57.678891],[12.050675,57.679191],[12.049961,57.680129],[12.04748,57.680862],[12.046265,57.682624],[12.045044,57.683054],[12.044484,57.682891],[12.043968,57.682942],[12.043686,57.683424],[12.043201,57.683516],[12.041818,57.685085],[12.041465,57.685928],[12.041978,57.686051],[12.040988,57.687041],[12.038603,57.688391],[12.038508,57.688648],[12.037869,57.688655],[12.037476,57.688882],[12.037219,57.690454],[12.036752,57.690447],[12.03433,57.692296],[12.034715,57.693388],[12.033686,57.694898],[12.033783,57.696509],[12.033557,57.697552],[12.032652,57.699088],[12.031952,57.699865],[12.030899,57.700529],[12.030491,57.701207],[12.030899,57.702996],[12.031663,57.703245],[12.030878,57.70486],[12.02906,57.706314],[12.026523,57.706309],[12.024563,57.70604],[12.023908,57.708696],[12.020572,57.708533],[12.021275,57.705603],[12.019348,57.705517],[12.018282,57.705678],[12.017983,57.705169]]]}},{"type":"Feature","id":"mellanomraden.1384026","properties":{"id":"mellanomraden.1384026","nr":"57","namn":"Älvsborg","area_km2":20.7,"stadsomrade":"Sydväst"},"geometry":{"type":"Polygon","coordinates":[[[11.893874,57.682456],[11.897033,57.686994],[11.893934,57.68885],[11.892562,57.688569],[11.890077,57.687385],[11.889548,57.687337],[11.881948,57.688722],[11.877413,57.688164],[11.871666,57.689286],[11.87058,57.68747],[11.869965,57.686849],[11.868782,57.686209],[11.867171,57.6858],[11.848352,57.685777],[11.845892,57.68555],[11.844663,57.685617],[11.844357,57.686579],[11.843204,57.688088],[11.842202,57.688846],[11.84083,57.689406],[11.840676,57.68975],[11.837023,57.689922],[11.836006,57.688339],[11.835801,57.686228],[11.832788,57.683858],[11.819508,57.678241],[11.821917,57.676102],[11.820299,57.674952],[11.821155,57.673522],[11.822347,57.6684],[11.823317,57.665881],[11.822257,57.662106],[11.822979,57.661434],[11.823483,57.660575],[11.823247,57.658963],[11.824335,57.654959],[11.822918,57.654282],[11.82202,57.653462],[11.821627,57.652605],[11.821681,57.651438],[11.822112,57.650565],[11.822966,57.649786],[11.824773,57.64884],[11.826131,57.648412],[11.826905,57.64549],[11.824718,57.644571],[11.823592,57.643283],[11.823472,57.642198],[11.824011,57.641153],[11.82503,57.640358],[11.82681,57.639671],[11.824055,57.638334],[11.832548,57.638179],[11.834891,57.637674],[11.836782,57.637645],[11.83797,57.637836],[11.839739,57.638369],[11.841316,57.639393],[11.841678,57.639132],[11.848207,57.640476],[11.853091,57.642486],[11.858064,57.641251],[11.858521,57.641297],[11.857878,57.641643],[11.856753,57.643042],[11.861376,57.643413],[11.862209,57.643772],[11.862082,57.644248],[11.863124,57.644366],[11.866399,57.645351],[11.86725,57.645635],[11.867842,57.646094],[11.868071,57.646684],[11.867663,57.648711],[11.867715,57.650527],[11.86838,57.651875],[11.869405,57.653229],[11.870619,57.654134],[11.87214,57.654644],[11.875723,57.655231],[11.87801,57.655809],[11.886544,57.658883],[11.888952,57.659913],[11.892326,57.66097],[11.896255,57.657541],[11.897623,57.658069],[11.898618,57.658176],[11.898958,57.658357],[11.899142,57.658488],[11.898518,57.661452],[11.89732,57.66343],[11.897767,57.663561],[11.897912,57.663427],[11.900275,57.664021],[11.900321,57.665364],[11.903125,57.6658],[11.903711,57.666112],[11.903992,57.665967],[11.904787,57.666016],[11.904872,57.666759],[11.90456,57.666781],[11.905025,57.667387],[11.904478,57.667514],[11.904486,57.667942],[11.905364,57.667896],[11.905402,57.668103],[11.904524,57.668149],[11.904808,57.668743],[11.907969,57.668567],[11.908021,57.668938],[11.907218,57.668981],[11.906867,57.669536],[11.906585,57.669556],[11.906696,57.66971],[11.906248,57.670409],[11.906359,57.670566],[11.906926,57.670597],[11.907151,57.671046],[11.90856,57.671456],[11.908725,57.673897],[11.908425,57.673909],[11.908471,57.674249],[11.909246,57.67502],[11.909377,57.675635],[11.910389,57.67608],[11.913329,57.675953],[11.914082,57.676208],[11.91504,57.676172],[11.915087,57.676792],[11.913594,57.677475],[11.912111,57.679268],[11.910768,57.679913],[11.904991,57.680312],[11.904694,57.680573],[11.905788,57.681318],[11.893874,57.682456]]]}},{"type":"Feature","id":"mellanomraden.1384027","properties":{"id":"mellanomraden.1384027","nr":"51","namn":"Askim-Hovås","area_km2":16.6,"stadsomrade":"Sydväst"},"geometry":{"type":"Polygon","coordinates":[[[11.976054,57.622242],[11.963101,57.634434],[11.961312,57.637347],[11.963415,57.637818],[11.962403,57.641676],[11.960677,57.641616],[11.960806,57.644627],[11.960458,57.644657],[11.960586,57.645833],[11.932532,57.645946],[11.932496,57.645542],[11.931728,57.645289],[11.931746,57.644663],[11.931301,57.644469],[11.9316,57.643889],[11.929178,57.643713],[11.928583,57.643503],[11.928444,57.642941],[11.929137,57.642152],[11.928528,57.641557],[11.9281,57.641408],[11.927924,57.641487],[11.927581,57.641222],[11.924211,57.640003],[11.922378,57.639694],[11.919754,57.639609],[11.918897,57.639382],[11.914747,57.637663],[11.914108,57.637063],[11.911225,57.635664],[11.91166,57.635324],[11.910979,57.634772],[11.909876,57.634273],[11.908563,57.630472],[11.908959,57.629077],[11.909754,57.628122],[11.911532,57.624615],[11.911544,57.623659],[11.910525,57.622479],[11.911213,57.621145],[11.913284,57.6202],[11.915264,57.619847],[11.917421,57.61984],[11.916182,57.618269],[11.915917,57.617281],[11.915449,57.617311],[11.914827,57.615906],[11.914212,57.615234],[11.912185,57.614002],[11.909741,57.613349],[11.926471,57.611088],[11.926467,57.610578],[11.927609,57.610425],[11.929279,57.60994],[11.929827,57.609634],[11.929718,57.609361],[11.930266,57.608723],[11.930552,57.608603],[11.931888,57.608905],[11.93198,57.608411],[11.933051,57.608611],[11.933055,57.609135],[11.934075,57.609249],[11.934092,57.609623],[11.934935,57.609839],[11.935332,57.609786],[11.93542,57.609963],[11.935891,57.609514],[11.936419,57.609663],[11.936395,57.60984],[11.937013,57.609603],[11.938441,57.609531],[11.943142,57.61186],[11.94764,57.608836],[11.949746,57.606865],[11.950649,57.605651],[11.950269,57.607304],[11.950322,57.609982],[11.966178,57.605923],[11.966469,57.606097],[11.967838,57.605784],[11.968049,57.606358],[11.968363,57.606333],[11.969805,57.605742],[11.969735,57.605403],[11.970215,57.60519],[11.969515,57.60447],[11.969262,57.603728],[11.969547,57.603314],[11.970896,57.602525],[11.961597,57.600719],[11.959986,57.598505],[11.961505,57.598115],[11.961889,57.597406],[11.96139,57.597472],[11.961844,57.596626],[11.964174,57.596138],[11.963644,57.595439],[11.969482,57.593229],[11.970833,57.594745],[11.987895,57.591173],[11.988219,57.591367],[11.988125,57.591814],[11.98859,57.591978],[11.988879,57.592389],[11.98895,57.596116],[11.99048,57.596571],[11.990597,57.596829],[11.991578,57.597453],[11.991987,57.597257],[11.991107,57.595824],[11.991898,57.595754],[11.999239,57.596038],[12.001744,57.599461],[11.9975,57.601479],[11.991858,57.60362],[11.992338,57.60522],[11.9919,57.606252],[11.989261,57.606051],[11.976054,57.622242]]]}},{"type":"Feature","id":"mellanomraden.1384028","properties":{"id":"mellanomraden.1384028","nr":"34","namn":"Olivedal-Haga-Annedal-Änggården","area_km2":6,"stadsomrade":"Centrum"},"geometry":{"type":"Polygon","coordinates":[[[11.960844,57.699841],[11.960951,57.700469],[11.959228,57.700406],[11.956284,57.700958],[11.955407,57.701723],[11.954529,57.702002],[11.951312,57.704214],[11.949854,57.703648],[11.945281,57.702538],[11.946964,57.697693],[11.948122,57.696704],[11.94811,57.690242],[11.947533,57.689985],[11.946773,57.69002],[11.946411,57.69028],[11.946558,57.690985],[11.945228,57.691074],[11.945723,57.691469],[11.946015,57.692548],[11.945668,57.693819],[11.941798,57.693525],[11.941743,57.692748],[11.937144,57.692061],[11.937948,57.691061],[11.939195,57.690498],[11.939186,57.690303],[11.934487,57.689782],[11.933665,57.688822],[11.931745,57.687455],[11.932008,57.68735],[11.931416,57.686001],[11.93117,57.683618],[11.93361,57.682677],[11.933932,57.681741],[11.935247,57.680798],[11.935646,57.680164],[11.934984,57.677961],[11.933979,57.677323],[11.934305,57.676397],[11.937796,57.675517],[11.939173,57.675356],[11.939544,57.675615],[11.93994,57.675584],[11.937833,57.668322],[11.940177,57.668378],[11.94127,57.666752],[11.942498,57.6664],[11.943165,57.666359],[11.943537,57.666101],[11.943327,57.665853],[11.943982,57.666126],[11.94672,57.666516],[11.949221,57.663544],[11.960136,57.666959],[11.959252,57.667782],[11.969478,57.670892],[11.965991,57.672788],[11.96882,57.674386],[11.96762,57.674973],[11.967946,57.675208],[11.967691,57.675306],[11.968299,57.675819],[11.967446,57.676039],[11.966092,57.676763],[11.966311,57.676914],[11.965744,57.677187],[11.966251,57.677478],[11.965018,57.677775],[11.965333,57.678246],[11.968188,57.678746],[11.968646,57.679117],[11.965951,57.680557],[11.964901,57.681365],[11.963734,57.684206],[11.963027,57.685205],[11.962629,57.685439],[11.962065,57.686463],[11.962228,57.686514],[11.961638,57.68692],[11.961153,57.687647],[11.961849,57.687901],[11.961661,57.688509],[11.961472,57.688644],[11.960784,57.688437],[11.959946,57.689006],[11.959097,57.689308],[11.960017,57.69007],[11.959946,57.690443],[11.960349,57.69132],[11.961,57.692196],[11.961553,57.692708],[11.961912,57.692612],[11.963408,57.694162],[11.963237,57.694611],[11.962417,57.694517],[11.963093,57.699913],[11.960844,57.699841]]]}},{"type":"Feature","id":"mellanomraden.1384029","properties":{"id":"mellanomraden.1384029","nr":"52","namn":"Billdal","area_km2":35.8,"stadsomrade":"Sydväst"},"geometry":{"type":"Polygon","coordinates":[[[11.999239,57.596038],[11.991898,57.595754],[11.991107,57.595824],[11.991987,57.597257],[11.991578,57.597453],[11.990597,57.596829],[11.99048,57.596571],[11.98895,57.596116],[11.988879,57.592389],[11.98859,57.591978],[11.988125,57.591814],[11.988219,57.591367],[11.987895,57.591173],[11.970833,57.594745],[11.969482,57.593229],[11.963644,57.595439],[11.964174,57.596138],[11.961844,57.596626],[11.96139,57.597472],[11.961889,57.597406],[11.961505,57.598115],[11.959986,57.598505],[11.961597,57.600719],[11.970896,57.602525],[11.969547,57.603314],[11.969262,57.603728],[11.969515,57.60447],[11.970215,57.60519],[11.969735,57.605403],[11.969805,57.605742],[11.968363,57.606333],[11.968049,57.606358],[11.967838,57.605784],[11.966469,57.606097],[11.966178,57.605923],[11.950322,57.609982],[11.950269,57.607304],[11.950649,57.605651],[11.949746,57.606865],[11.94764,57.608836],[11.943142,57.61186],[11.938441,57.609531],[11.937013,57.609603],[11.936395,57.60984],[11.936419,57.609663],[11.935891,57.609514],[11.93542,57.609963],[11.935332,57.609786],[11.934935,57.609839],[11.934092,57.609623],[11.934075,57.609249],[11.933055,57.609135],[11.933051,57.608611],[11.93198,57.608411],[11.931888,57.608905],[11.930552,57.608603],[11.930266,57.608723],[11.929718,57.609361],[11.929827,57.609634],[11.929279,57.60994],[11.927609,57.610425],[11.926467,57.610578],[11.926471,57.611088],[11.909741,57.613349],[11.901098,57.604804],[11.896628,57.601916],[11.894473,57.598537],[11.892238,57.596209],[11.862387,57.574015],[11.849392,57.564607],[11.855593,57.558131],[11.878032,57.559135],[11.889858,57.562187],[11.898195,57.560831],[11.908734,57.562625],[11.912021,57.562549],[11.919079,57.563383],[11.921085,57.563075],[11.922356,57.56367],[11.924338,57.5633],[11.924769,57.562509],[11.927443,57.562093],[11.92782,57.562336],[11.929127,57.562154],[11.9296,57.56172],[11.930637,57.561769],[11.931684,57.562123],[11.93768,57.56164],[11.939326,57.561753],[11.940313,57.561462],[11.941782,57.56135],[11.943892,57.561397],[11.946919,57.562035],[11.947044,57.561952],[11.94828,57.562597],[11.94915,57.562527],[11.950891,57.562754],[11.952712,57.563095],[11.95303,57.563341],[11.954101,57.56325],[11.954094,57.563016],[11.954986,57.562993],[11.955553,57.563137],[11.956017,57.563051],[11.956795,57.563308],[11.957875,57.563987],[11.96383,57.562174],[11.966523,57.562252],[11.966545,57.562457],[11.967299,57.562616],[11.968252,57.563796],[11.96977,57.563854],[11.970827,57.563484],[11.972262,57.563499],[11.972595,57.563246],[11.974659,57.563023],[11.975185,57.562637],[11.975399,57.561961],[11.976222,57.56165],[11.977452,57.561837],[11.979424,57.563633],[11.979122,57.564015],[11.983521,57.564643],[11.987849,57.56506],[11.98892,57.565366],[11.98931,57.56579],[11.990916,57.566231],[11.991395,57.566564],[11.992605,57.566353],[11.994063,57.566566],[11.993906,57.566822],[11.995744,57.567296],[11.996182,57.567714],[11.996756,57.567817],[11.997402,57.567531],[11.998172,57.567421],[11.999134,57.566593],[11.998943,57.566279],[12.00037,57.566312],[12.003526,57.566774],[12.009298,57.570048],[12.003646,57.577405],[12.001179,57.58119],[11.998631,57.584515],[11.998771,57.584866],[12.00017,57.585187],[12.000108,57.586807],[12.000314,57.587273],[12.000042,57.588035],[11.999234,57.588688],[11.999095,57.590504],[11.998818,57.590755],[11.999239,57.596038]]]}},{"type":"Feature","id":"mellanomraden.1384030","properties":{"id":"mellanomraden.1384030","nr":"10","namn":"Östra Angered","area_km2":70.8,"stadsomrade":"Nordost"},"geometry":{"type":"Polygon","coordinates":[[[12.052167,57.775685],[12.051781,57.773423],[12.052542,57.773462],[12.053609,57.771156],[12.055128,57.770944],[12.057703,57.771067],[12.060152,57.77162],[12.060781,57.770841],[12.062753,57.770798],[12.063259,57.770913],[12.063591,57.771363],[12.064325,57.771767],[12.065731,57.77163],[12.06658,57.771743],[12.067009,57.772978],[12.066761,57.773679],[12.06751,57.773847],[12.068977,57.773688],[12.069301,57.773771],[12.069438,57.774546],[12.070211,57.774896],[12.070256,57.775122],[12.069459,57.775503],[12.069695,57.775805],[12.079462,57.773284],[12.078933,57.76734],[12.079663,57.764009],[12.078734,57.763626],[12.079761,57.762123],[12.096875,57.765523],[12.114026,57.772396],[12.133855,57.773766],[12.164084,57.77507],[12.173674,57.775942],[12.183454,57.780005],[12.201,57.784943],[12.203614,57.786148],[12.202899,57.786556],[12.202726,57.786892],[12.203835,57.788843],[12.207352,57.789943],[12.207749,57.789386],[12.208565,57.78919],[12.208,57.789871],[12.208301,57.790005],[12.209284,57.790135],[12.211104,57.790098],[12.210772,57.790728],[12.209492,57.791858],[12.209366,57.792338],[12.210805,57.792765],[12.212388,57.790948],[12.212866,57.790813],[12.214196,57.791031],[12.214815,57.791326],[12.215407,57.793125],[12.216648,57.794174],[12.217494,57.79401],[12.218484,57.793207],[12.219426,57.792956],[12.22022,57.793332],[12.222619,57.793433],[12.223199,57.793189],[12.228955,57.794221],[12.229908,57.794511],[12.231318,57.794605],[12.231406,57.794918],[12.23216,57.795415],[12.234475,57.795545],[12.235853,57.795232],[12.241611,57.796359],[12.224478,57.810895],[12.220967,57.812028],[12.214409,57.81384],[12.213548,57.813877],[12.210407,57.812814],[12.204708,57.816003],[12.204624,57.816359],[12.205837,57.816304],[12.206052,57.816462],[12.205307,57.816574],[12.206016,57.81672],[12.20579,57.816962],[12.206058,57.817494],[12.205015,57.819797],[12.203506,57.820962],[12.200418,57.822517],[12.200325,57.823099],[12.199859,57.823714],[12.199191,57.823991],[12.19878,57.824554],[12.193765,57.825702],[12.191956,57.834246],[12.170154,57.855684],[12.156581,57.859983],[12.155137,57.860666],[12.153547,57.860957],[12.151199,57.861723],[12.149052,57.862665],[12.148448,57.863096],[12.147436,57.863227],[12.146182,57.864043],[12.146181,57.864686],[12.144497,57.864775],[12.141932,57.865991],[12.139496,57.86582],[12.137548,57.866004],[12.135901,57.865415],[12.130102,57.864738],[12.129546,57.86456],[12.126587,57.863581],[12.125771,57.862103],[12.125217,57.861691],[12.093254,57.851436],[12.079033,57.846129],[12.070394,57.843798],[12.061646,57.841647],[12.060007,57.841098],[12.080701,57.82736],[12.086042,57.822317],[12.106192,57.804649],[12.103222,57.804781],[12.104249,57.802323],[12.099687,57.801985],[12.100232,57.801401],[12.090186,57.79951],[12.078191,57.799715],[12.077549,57.799494],[12.077697,57.799236],[12.075949,57.79866],[12.075631,57.798985],[12.073648,57.797878],[12.073647,57.797199],[12.072398,57.796925],[12.072133,57.797006],[12.073052,57.797851],[12.072311,57.798755],[12.069316,57.798334],[12.06904,57.799218],[12.066783,57.798802],[12.068396,57.795292],[12.065524,57.794457],[12.065068,57.794454],[12.064239,57.794039],[12.063737,57.794127],[12.063415,57.794674],[12.063056,57.794693],[12.062451,57.794115],[12.062258,57.793406],[12.063196,57.791997],[12.06266,57.791858],[12.061827,57.792114],[12.061517,57.792944],[12.061167,57.792808],[12.060651,57.792063],[12.05939,57.791989],[12.058823,57.791771],[12.058472,57.791162],[12.059479,57.791246],[12.059824,57.790594],[12.059343,57.790064],[12.059121,57.788598],[12.061927,57.786415],[12.063036,57.784717],[12.063732,57.784228],[12.057393,57.783424],[12.053474,57.779067],[12.053903,57.777945],[12.055027,57.777936],[12.053331,57.775855],[12.052167,57.775685]]]}},{"type":"Feature","id":"mellanomraden.1384031","properties":{"id":"mellanomraden.1384031","nr":"39","namn":"Olskroken-Redbergslid-Bagaregården","area_km2":1.2,"stadsomrade":"Centrum"},"geometry":{"type":"Polygon","coordinates":[[[12.023962,57.720296],[12.02205,57.722521],[12.020701,57.722707],[12.019358,57.723256],[12.018741,57.723082],[12.018738,57.723817],[12.019301,57.723817],[12.019379,57.724296],[12.016783,57.724455],[12.011382,57.723835],[12.008952,57.72338],[12.009136,57.722974],[12.005795,57.722229],[12.003867,57.721206],[12.001146,57.719237],[11.995239,57.715867],[11.996065,57.714117],[11.994579,57.713882],[11.994412,57.713499],[11.996174,57.712309],[11.996973,57.711557],[11.997267,57.710911],[11.995449,57.704826],[11.996282,57.704941],[11.996221,57.704739],[11.997663,57.704585],[11.997676,57.70425],[11.998125,57.704202],[11.998104,57.703881],[11.998604,57.70391],[11.998063,57.706303],[11.997622,57.706585],[11.998361,57.709105],[11.998776,57.709734],[11.999227,57.709802],[12.000812,57.711312],[12.0022,57.713204],[12.003763,57.713964],[12.005251,57.714262],[12.004185,57.71556],[12.004668,57.716039],[12.006882,57.716775],[12.008686,57.716724],[12.014782,57.717299],[12.020534,57.718466],[12.022933,57.719457],[12.023962,57.720296]]]}},{"type":"Feature","id":"mellanomraden.1384032","properties":{"id":"mellanomraden.1384032","nr":"11","namn":"Bergsjön","area_km2":6.1,"stadsomrade":"Nordost"},"geometry":{"type":"Polygon","coordinates":[[[12.064325,57.771767],[12.063259,57.770913],[12.062753,57.770798],[12.060781,57.770841],[12.060352,57.771554],[12.05983,57.771622],[12.058592,57.77121],[12.056655,57.770935],[12.055128,57.770944],[12.053379,57.771171],[12.051065,57.770591],[12.048932,57.770684],[12.048407,57.769539],[12.047145,57.769404],[12.04553,57.768815],[12.046182,57.767643],[12.047392,57.766857],[12.048181,57.767039],[12.048557,57.766974],[12.048337,57.766494],[12.048563,57.766069],[12.049149,57.765848],[12.050085,57.765037],[12.049016,57.762585],[12.047946,57.761607],[12.046932,57.760247],[12.046238,57.759799],[12.046371,57.758806],[12.047126,57.75845],[12.047009,57.757858],[12.046502,57.757432],[12.046664,57.756719],[12.045545,57.756572],[12.044605,57.755501],[12.047185,57.755035],[12.048346,57.755244],[12.04889,57.75498],[12.048661,57.75468],[12.047357,57.754081],[12.046827,57.752655],[12.046081,57.751918],[12.047621,57.751403],[12.04684,57.749672],[12.047079,57.748326],[12.04761,57.747581],[12.047911,57.747473],[12.048526,57.747628],[12.048424,57.747717],[12.05242,57.748381],[12.053452,57.747102],[12.053516,57.74611],[12.055506,57.74572],[12.056613,57.744966],[12.055498,57.74455],[12.056845,57.74355],[12.058634,57.743399],[12.059696,57.744021],[12.061427,57.743683],[12.06332,57.742671],[12.066289,57.74294],[12.067309,57.741861],[12.068291,57.741966],[12.068956,57.742258],[12.069227,57.742156],[12.069561,57.742432],[12.069215,57.74243],[12.070218,57.743256],[12.07164,57.743409],[12.071922,57.74323],[12.071918,57.742794],[12.073606,57.742193],[12.074136,57.742187],[12.074388,57.741998],[12.075742,57.74199],[12.077416,57.742307],[12.079431,57.742339],[12.078804,57.747116],[12.07968,57.750356],[12.079358,57.753892],[12.08006,57.754796],[12.082677,57.754695],[12.082798,57.755585],[12.08261,57.756407],[12.078198,57.761816],[12.07976,57.762123],[12.078734,57.763626],[12.079663,57.764009],[12.078933,57.76734],[12.079462,57.773284],[12.069695,57.775805],[12.069459,57.775503],[12.070256,57.775122],[12.070211,57.774896],[12.069438,57.774546],[12.069301,57.773771],[12.068977,57.773688],[12.06751,57.773847],[12.066761,57.773679],[12.067009,57.772978],[12.06658,57.771743],[12.065731,57.77163],[12.064325,57.771767]]]}},{"type":"Feature","id":"mellanomraden.1384033","properties":{"id":"mellanomraden.1384033","nr":"30","namn":"Kålltorp-Torpa-Björkekärr","area_km2":13,"stadsomrade":"Centrum"},"geometry":{"type":"Polygon","coordinates":[[[12.05489,57.730543],[12.042817,57.727925],[12.037666,57.726543],[12.02562,57.72411],[12.02244,57.723965],[12.021473,57.724166],[12.019379,57.724296],[12.019301,57.723817],[12.018738,57.723817],[12.018741,57.723082],[12.019358,57.723256],[12.020701,57.722707],[12.02205,57.722521],[12.023962,57.720296],[12.023409,57.719723],[12.021353,57.718776],[12.023787,57.718183],[12.02534,57.718078],[12.02524,57.716179],[12.023875,57.712316],[12.023914,57.708628],[12.024563,57.70604],[12.026523,57.706309],[12.02906,57.706314],[12.030878,57.70486],[12.031663,57.703245],[12.030899,57.702996],[12.030556,57.700945],[12.032378,57.69941],[12.033557,57.697552],[12.033783,57.696509],[12.033686,57.694898],[12.034715,57.693388],[12.03433,57.692296],[12.036752,57.690447],[12.037219,57.690454],[12.037476,57.688882],[12.037869,57.688655],[12.038508,57.688648],[12.038603,57.688391],[12.040988,57.687041],[12.041901,57.686169],[12.0418,57.685948],[12.041465,57.685928],[12.041818,57.685085],[12.043201,57.683516],[12.043864,57.68327],[12.043968,57.682942],[12.044484,57.682891],[12.044915,57.683071],[12.045855,57.682873],[12.046265,57.682624],[12.047308,57.680984],[12.048233,57.680557],[12.049961,57.680129],[12.050769,57.679114],[12.053129,57.678484],[12.054304,57.678336],[12.055179,57.678532],[12.056237,57.678082],[12.075818,57.68389],[12.088667,57.682167],[12.074651,57.701938],[12.07414,57.701902],[12.055723,57.728601],[12.05489,57.730543]]]}},{"type":"Feature","id":"mellanomraden.1384034","properties":{"id":"mellanomraden.1384034","nr":"73","namn":"Kyrkbyn-Rambergsstaden","area_km2":3.9,"stadsomrade":"Hisingen"},"geometry":{"type":"Polygon","coordinates":[[[11.943268,57.712708],[11.953671,57.718383],[11.954657,57.719383],[11.952708,57.719865],[11.952088,57.719807],[11.950543,57.719024],[11.94901,57.719475],[11.949087,57.71977],[11.944507,57.719788],[11.943358,57.720393],[11.938115,57.720587],[11.93518,57.720005],[11.934355,57.719253],[11.933872,57.719418],[11.934334,57.720764],[11.931624,57.720182],[11.920963,57.718709],[11.911895,57.717177],[11.908747,57.718129],[11.908123,57.718022],[11.908991,57.716584],[11.906295,57.714896],[11.905243,57.714423],[11.903769,57.714062],[11.896243,57.712866],[11.896598,57.712574],[11.89632,57.71213],[11.89491,57.71081],[11.893362,57.709814],[11.892504,57.709778],[11.891453,57.709251],[11.890965,57.708329],[11.891717,57.705872],[11.891586,57.704188],[11.892377,57.703827],[11.89325,57.703003],[11.894479,57.700726],[11.897776,57.700097],[11.901825,57.700415],[11.903685,57.700777],[11.903817,57.700592],[11.908183,57.70151],[11.908238,57.70173],[11.910139,57.70259],[11.910607,57.702379],[11.910941,57.702516],[11.911148,57.703897],[11.911802,57.704595],[11.916367,57.706233],[11.917863,57.707059],[11.918493,57.707772],[11.918412,57.709747],[11.922176,57.70987],[11.927494,57.710724],[11.929547,57.711162],[11.930265,57.711474],[11.932806,57.711864],[11.942165,57.712474],[11.943268,57.712708]]]}},{"type":"Feature","id":"mellanomraden.1384035","properties":{"id":"mellanomraden.1384035","nr":"76","namn":"Björlanda","area_km2":45.1,"stadsomrade":"Hisingen"},"geometry":{"type":"Polygon","coordinates":[[[11.827232,57.740953],[11.826692,57.740793],[11.826989,57.740234],[11.827301,57.740321],[11.827991,57.740079],[11.829415,57.739343],[11.828592,57.739113],[11.827524,57.739414],[11.826358,57.739258],[11.826666,57.739255],[11.826471,57.738565],[11.826657,57.738653],[11.826649,57.738066],[11.828202,57.734009],[11.829156,57.733792],[11.82946,57.734127],[11.829949,57.734279],[11.830804,57.734208],[11.831925,57.734366],[11.83252,57.734219],[11.832888,57.734323],[11.832958,57.734718],[11.832422,57.734799],[11.832074,57.735067],[11.832572,57.735444],[11.831585,57.736339],[11.832612,57.736968],[11.834986,57.737458],[11.838383,57.736149],[11.839412,57.737472],[11.840831,57.737982],[11.841206,57.738432],[11.841935,57.738745],[11.842309,57.738588],[11.842727,57.738],[11.842478,57.737861],[11.842443,57.736929],[11.841698,57.736093],[11.841754,57.735885],[11.843565,57.7357],[11.84373,57.735469],[11.854559,57.736965],[11.855182,57.737944],[11.855974,57.738471],[11.861864,57.740404],[11.867683,57.745094],[11.871934,57.744587],[11.873055,57.74379],[11.872825,57.746952],[11.873754,57.749758],[11.874995,57.75213],[11.879007,57.757776],[11.884099,57.763263],[11.885227,57.766444],[11.883366,57.7668],[11.8807,57.771364],[11.880149,57.77085],[11.877682,57.771823],[11.8754,57.771805],[11.875209,57.77001],[11.873341,57.764551],[11.867127,57.765913],[11.867088,57.76673],[11.864756,57.767277],[11.864576,57.770409],[11.862692,57.770625],[11.863866,57.771927],[11.862506,57.773679],[11.862678,57.774777],[11.858697,57.777125],[11.852328,57.778838],[11.852769,57.779502],[11.849387,57.77987],[11.847342,57.780513],[11.847345,57.78076],[11.839613,57.790827],[11.838859,57.791394],[11.837682,57.791753],[11.837969,57.792048],[11.837776,57.792725],[11.836121,57.794193],[11.833674,57.794109],[11.828789,57.792254],[11.82829,57.79185],[11.821801,57.790627],[11.808812,57.789532],[11.731617,57.771096],[11.719978,57.747772],[11.718467,57.74611],[11.730991,57.741403],[11.732441,57.741198],[11.732681,57.740475],[11.753479,57.735748],[11.764086,57.736746],[11.767995,57.735689],[11.770152,57.735464],[11.771401,57.735071],[11.772896,57.735026],[11.773511,57.734679],[11.77462,57.73498],[11.776633,57.734849],[11.777969,57.73543],[11.778544,57.735461],[11.779513,57.735151],[11.781055,57.735436],[11.782649,57.735291],[11.786145,57.735444],[11.787144,57.735291],[11.790169,57.735533],[11.790534,57.735498],[11.790606,57.735314],[11.792085,57.734639],[11.792852,57.733895],[11.793646,57.733808],[11.79472,57.733298],[11.800178,57.733553],[11.800415,57.733499],[11.799386,57.732596],[11.79997,57.732062],[11.799829,57.731381],[11.801324,57.73034],[11.805414,57.730918],[11.807961,57.72508],[11.812577,57.725753],[11.813974,57.725802],[11.814284,57.727576],[11.813978,57.729993],[11.821511,57.729902],[11.821551,57.7329],[11.821334,57.733013],[11.821592,57.735772],[11.821503,57.736277],[11.821062,57.736355],[11.820761,57.738587],[11.820442,57.738557],[11.820756,57.738629],[11.820625,57.740532],[11.82185,57.741583],[11.82393,57.742126],[11.825798,57.741712],[11.827232,57.740953]]]}},{"type":"Feature","id":"mellanomraden.1384036","properties":{"id":"mellanomraden.1384036","nr":"78","namn":"Kärrdalen-Slättadamm","area_km2":6.1,"stadsomrade":"Hisingen"},"geometry":{"type":"Polygon","coordinates":[[[11.93977,57.733987],[11.92887,57.735389],[11.927762,57.737959],[11.930491,57.741759],[11.927959,57.742247],[11.928403,57.742445],[11.929321,57.742295],[11.93026,57.742997],[11.925186,57.743734],[11.925528,57.744476],[11.924458,57.745423],[11.915183,57.746666],[11.9132,57.747273],[11.912208,57.747957],[11.90821,57.748948],[11.907321,57.747636],[11.906685,57.747171],[11.903976,57.747241],[11.902885,57.747498],[11.902468,57.747934],[11.900788,57.748669],[11.900899,57.750005],[11.89873,57.750987],[11.893822,57.753991],[11.891461,57.755163],[11.88643,57.756338],[11.883952,57.756324],[11.881008,57.756663],[11.879677,57.756001],[11.877756,57.756191],[11.875351,57.75275],[11.873978,57.750195],[11.876851,57.749211],[11.877281,57.747664],[11.876502,57.747602],[11.876707,57.746917],[11.880128,57.746715],[11.880444,57.747103],[11.880982,57.746911],[11.881455,57.747067],[11.883319,57.746518],[11.882804,57.745812],[11.881562,57.745789],[11.881661,57.743862],[11.88318,57.74319],[11.885282,57.743256],[11.885661,57.743988],[11.886653,57.744722],[11.888017,57.744625],[11.890249,57.744076],[11.889929,57.743716],[11.887425,57.743622],[11.88733,57.743256],[11.886579,57.743242],[11.886704,57.741827],[11.887891,57.741223],[11.892382,57.741429],[11.892901,57.741325],[11.891983,57.740999],[11.892569,57.74016],[11.896812,57.742385],[11.898839,57.740962],[11.898795,57.740293],[11.900402,57.739871],[11.901907,57.738818],[11.900923,57.737699],[11.903867,57.73554],[11.903369,57.734638],[11.905576,57.734289],[11.907138,57.733171],[11.907129,57.732206],[11.908777,57.732285],[11.908922,57.732027],[11.909178,57.732068],[11.909499,57.731067],[11.908541,57.730879],[11.9041,57.729176],[11.90468,57.728914],[11.905286,57.729218],[11.906343,57.729346],[11.9079,57.728858],[11.907948,57.725773],[11.907703,57.725772],[11.907858,57.725578],[11.909674,57.725679],[11.909698,57.724817],[11.909941,57.724515],[11.910827,57.724735],[11.910896,57.724605],[11.910355,57.724495],[11.910546,57.724245],[11.910139,57.724147],[11.910642,57.72352],[11.911651,57.723727],[11.911831,57.723497],[11.912846,57.72369],[11.913203,57.723106],[11.913673,57.723189],[11.91368,57.723409],[11.914009,57.723417],[11.913983,57.723729],[11.914427,57.723719],[11.914661,57.723334],[11.915351,57.723455],[11.915657,57.723329],[11.915782,57.723957],[11.916284,57.724044],[11.916391,57.722444],[11.916863,57.720982],[11.918925,57.718782],[11.920263,57.718986],[11.920024,57.719465],[11.919106,57.719461],[11.919463,57.720142],[11.919245,57.720407],[11.919964,57.720486],[11.919177,57.721197],[11.918777,57.721929],[11.918232,57.722107],[11.918941,57.722127],[11.918381,57.723951],[11.917569,57.723974],[11.919795,57.728392],[11.922316,57.728316],[11.922636,57.728547],[11.920042,57.729605],[11.918596,57.730393],[11.919489,57.730827],[11.921505,57.729746],[11.923663,57.728972],[11.925108,57.728624],[11.928534,57.728147],[11.945795,57.727263],[11.948776,57.728377],[11.948862,57.729546],[11.946216,57.729692],[11.946297,57.72932],[11.945555,57.729679],[11.945018,57.729579],[11.945025,57.729387],[11.944649,57.729407],[11.942223,57.73287],[11.941864,57.734281],[11.940423,57.733682],[11.93977,57.733987]]]}},{"type":"Feature","id":"mellanomraden.1384037","properties":{"id":"mellanomraden.1384037","nr":"15","namn":"Centrala Angered","area_km2":11,"stadsomrade":"Nordost"},"geometry":{"type":"Polygon","coordinates":[[[12.075631,57.798985],[12.075949,57.79866],[12.077697,57.799236],[12.077549,57.799494],[12.078191,57.799715],[12.090186,57.79951],[12.100232,57.801401],[12.099687,57.801985],[12.104249,57.802323],[12.103222,57.804781],[12.106192,57.804649],[12.086042,57.822317],[12.084228,57.8241],[12.069255,57.822183],[12.075848,57.815064],[12.076241,57.815093],[12.076434,57.814428],[12.07725,57.813544],[12.071741,57.812673],[12.071547,57.812028],[12.070802,57.811117],[12.070428,57.810993],[12.071376,57.810326],[12.066551,57.809662],[12.066046,57.809724],[12.065462,57.809516],[12.056037,57.808292],[12.054746,57.808657],[12.053353,57.808828],[12.048248,57.808522],[12.043586,57.808669],[12.042215,57.808361],[12.041198,57.807937],[12.042237,57.80729],[12.038894,57.807472],[12.037189,57.804981],[12.037414,57.80478],[12.036923,57.804252],[12.0373,57.803731],[12.039032,57.80273],[12.038552,57.80242],[12.03857,57.801837],[12.039254,57.801432],[12.036215,57.797817],[12.034805,57.797936],[12.032225,57.797683],[12.031949,57.797282],[12.030365,57.797453],[12.029429,57.797246],[12.028397,57.797224],[12.024841,57.798107],[12.024041,57.798659],[12.023715,57.799291],[12.020349,57.799584],[12.016326,57.799624],[12.016598,57.800743],[12.016111,57.80616],[12.013927,57.80619],[12.013902,57.800001],[12.012582,57.795507],[12.012149,57.794316],[12.009089,57.790076],[12.008334,57.788197],[12.006572,57.785423],[12.005227,57.782537],[12.004478,57.779774],[12.005575,57.772184],[12.005096,57.771756],[12.005142,57.77145],[12.005714,57.771492],[12.005542,57.770356],[12.01202,57.769648],[12.012164,57.770143],[12.013682,57.770199],[12.014591,57.771494],[12.015171,57.77194],[12.013267,57.774116],[12.0122,57.774349],[12.01294,57.77511],[12.013115,57.776474],[12.012354,57.776931],[12.011929,57.778824],[12.015015,57.782176],[12.01883,57.782836],[12.019221,57.784017],[12.018747,57.787117],[12.017145,57.787412],[12.017158,57.787761],[12.016769,57.787885],[12.016981,57.78826],[12.020358,57.788104],[12.026742,57.786802],[12.029143,57.786518],[12.032446,57.786835],[12.033636,57.78716],[12.036707,57.788406],[12.040936,57.789659],[12.041301,57.789105],[12.043199,57.787647],[12.04593,57.788467],[12.046309,57.787918],[12.048756,57.788586],[12.049298,57.787985],[12.050217,57.78837],[12.052001,57.788786],[12.05272,57.788794],[12.053483,57.78861],[12.053581,57.789103],[12.057074,57.789059],[12.059161,57.789197],[12.059343,57.790064],[12.059824,57.790594],[12.059479,57.791246],[12.058472,57.791162],[12.058683,57.791628],[12.059345,57.791981],[12.060679,57.792075],[12.061167,57.792808],[12.061536,57.792946],[12.061797,57.792132],[12.062621,57.791861],[12.063152,57.791965],[12.06324,57.792176],[12.062258,57.793406],[12.062451,57.794115],[12.062973,57.794652],[12.063379,57.794694],[12.06371,57.794142],[12.064277,57.794044],[12.065068,57.794454],[12.065524,57.794457],[12.068396,57.795292],[12.066783,57.798802],[12.06904,57.799218],[12.069316,57.798334],[12.072311,57.798755],[12.073052,57.797851],[12.072133,57.797006],[12.072398,57.796925],[12.073647,57.797199],[12.073648,57.797878],[12.075631,57.798985]]]}},{"type":"Feature","id":"mellanomraden.1384038","properties":{"id":"mellanomraden.1384038","nr":"79","namn":"Östra Biskopsgården","area_km2":2.3,"stadsomrade":"Hisingen"},"geometry":{"type":"Polygon","coordinates":[[[11.9041,57.729176],[11.908541,57.730879],[11.909499,57.731067],[11.909178,57.732068],[11.908922,57.732027],[11.908777,57.732285],[11.907129,57.732206],[11.907138,57.733171],[11.905576,57.734289],[11.903369,57.734638],[11.903867,57.73554],[11.900923,57.737699],[11.901907,57.738818],[11.901416,57.739162],[11.89997,57.738424],[11.899097,57.737742],[11.895856,57.733385],[11.894097,57.728612],[11.893388,57.725824],[11.893083,57.725815],[11.893032,57.725601],[11.893442,57.721419],[11.893846,57.721433],[11.89412,57.720365],[11.89576,57.71837],[11.896755,57.716035],[11.896678,57.714398],[11.896243,57.712866],[11.903769,57.714062],[11.905243,57.714423],[11.906295,57.714896],[11.908991,57.716584],[11.908123,57.718022],[11.908747,57.718129],[11.911895,57.717177],[11.919247,57.718411],[11.916863,57.720982],[11.916391,57.722444],[11.916284,57.724044],[11.915782,57.723957],[11.915657,57.723329],[11.915351,57.723455],[11.914661,57.723334],[11.914427,57.723719],[11.913983,57.723729],[11.914009,57.723417],[11.91368,57.723409],[11.913673,57.723189],[11.913203,57.723106],[11.912846,57.72369],[11.911831,57.723497],[11.911651,57.723727],[11.910642,57.72352],[11.910139,57.724147],[11.910546,57.724245],[11.910355,57.724495],[11.910896,57.724605],[11.910827,57.724735],[11.909941,57.724515],[11.909698,57.724817],[11.909674,57.725679],[11.907858,57.725578],[11.907703,57.725772],[11.907948,57.725773],[11.9079,57.728858],[11.906343,57.729346],[11.905286,57.729218],[11.90468,57.728914],[11.9041,57.729176]]]}},{"type":"Feature","id":"mellanomraden.1384039","properties":{"id":"mellanomraden.1384039","nr":"16","namn":"Norra Angered","area_km2":8.7,"stadsomrade":"Nordost"},"geometry":{"type":"Polygon","coordinates":[[[12.032622,57.821127],[12.03003,57.820828],[12.030257,57.818079],[12.028517,57.815852],[12.029097,57.814548],[12.027371,57.81392],[12.027732,57.812972],[12.026997,57.812585],[12.025528,57.812414],[12.024632,57.811932],[12.023053,57.811881],[12.021972,57.812021],[12.018886,57.811807],[12.017636,57.810598],[12.016886,57.810632],[12.016695,57.810274],[12.016682,57.809509],[12.017166,57.808228],[12.016649,57.806659],[12.016134,57.806574],[12.016598,57.800743],[12.016326,57.799624],[12.020349,57.799584],[12.023715,57.799291],[12.024041,57.798659],[12.024841,57.798107],[12.028397,57.797224],[12.029429,57.797246],[12.030365,57.797453],[12.031949,57.797282],[12.032225,57.797683],[12.034805,57.797936],[12.036215,57.797817],[12.039254,57.801432],[12.03857,57.801837],[12.038552,57.80242],[12.039032,57.80273],[12.0373,57.803731],[12.036923,57.804252],[12.037414,57.80478],[12.037189,57.804981],[12.038894,57.807472],[12.042237,57.80729],[12.041198,57.807937],[12.042215,57.808361],[12.043586,57.808669],[12.048248,57.808522],[12.053353,57.808828],[12.054746,57.808657],[12.056037,57.808292],[12.065462,57.809516],[12.066046,57.809724],[12.066551,57.809662],[12.071376,57.810326],[12.070428,57.810993],[12.070802,57.811117],[12.071547,57.812028],[12.071741,57.812673],[12.07725,57.813544],[12.076434,57.814428],[12.076241,57.815093],[12.075848,57.815064],[12.069255,57.822183],[12.084228,57.8241],[12.080701,57.82736],[12.060007,57.841098],[12.053243,57.839128],[12.043683,57.83495],[12.047194,57.830611],[12.047729,57.829197],[12.04899,57.829264],[12.049367,57.82912],[12.048426,57.828546],[12.048858,57.828146],[12.050006,57.8279],[12.052036,57.826588],[12.048416,57.82124],[12.046897,57.820674],[12.045965,57.82142],[12.043176,57.822097],[12.042012,57.823557],[12.0406,57.824197],[12.038774,57.825861],[12.037416,57.826403],[12.036251,57.825778],[12.032622,57.821127]]]}},{"type":"Feature","id":"mellanomraden.1384040","properties":{"id":"mellanomraden.1384040","nr":"37","namn":"Norra Centrum","area_km2":5.8,"stadsomrade":"Centrum"},"geometry":{"type":"Polygon","coordinates":[[[11.984486,57.694207],[11.985479,57.693446],[11.986219,57.693483],[11.985943,57.694982],[11.987197,57.695117],[11.987107,57.696186],[11.994459,57.68933],[11.998395,57.690278],[11.997775,57.691394],[11.996263,57.695853],[11.994819,57.702089],[11.99564,57.705601],[11.997223,57.710309],[11.997125,57.711315],[11.996174,57.712309],[11.994412,57.713499],[11.994846,57.714821],[11.993344,57.716769],[11.992103,57.717366],[11.990974,57.718179],[11.986679,57.721896],[11.971315,57.716515],[11.961675,57.711972],[11.956084,57.707059],[11.951312,57.704214],[11.954529,57.702002],[11.955407,57.701723],[11.956377,57.700922],[11.959228,57.700406],[11.960951,57.700469],[11.960844,57.699841],[11.963093,57.699913],[11.962417,57.694517],[11.963237,57.694611],[11.96341,57.694212],[11.963244,57.693865],[11.964729,57.694001],[11.96539,57.694217],[11.966725,57.69422],[11.966624,57.695186],[11.968956,57.695495],[11.970947,57.696539],[11.973191,57.693621],[11.975772,57.694247],[11.977635,57.69481],[11.978485,57.695254],[11.979156,57.695362],[11.979553,57.695301],[11.979833,57.695006],[11.979385,57.693615],[11.98053,57.693177],[11.981163,57.692736],[11.981663,57.692919],[11.981407,57.693129],[11.982514,57.693363],[11.982637,57.693961],[11.984486,57.694207]]]}},{"type":"Feature","id":"mellanomraden.1384041","properties":{"id":"mellanomraden.1384041","nr":"53","namn":"Södra Skärgården","area_km2":198.4,"stadsomrade":"Sydväst"},"geometry":{"type":"Polygon","coordinates":[[[11.861462,57.573396],[11.842405,57.589949],[11.840846,57.591926],[11.83442,57.601741],[11.835253,57.60296],[11.834898,57.604315],[11.833515,57.605558],[11.83154,57.606257],[11.831015,57.607066],[11.831426,57.61046],[11.839512,57.619001],[11.840791,57.62376],[11.844105,57.624611],[11.847314,57.624639],[11.849592,57.6238],[11.854961,57.624769],[11.856055,57.626813],[11.855449,57.629197],[11.854716,57.62967],[11.853436,57.629783],[11.849892,57.630588],[11.847707,57.631983],[11.846436,57.633313],[11.84415,57.635177],[11.837589,57.637752],[11.835597,57.637618],[11.832548,57.638179],[11.824055,57.638334],[11.82681,57.639671],[11.82503,57.640358],[11.824011,57.641153],[11.823472,57.642198],[11.823592,57.643283],[11.824718,57.644571],[11.826905,57.64549],[11.826131,57.648412],[11.824773,57.64884],[11.822966,57.649786],[11.822112,57.650565],[11.821681,57.651438],[11.821627,57.652605],[11.82202,57.653462],[11.822918,57.654282],[11.824335,57.654959],[11.823247,57.658963],[11.823483,57.660575],[11.822979,57.661434],[11.822257,57.662106],[11.823317,57.665881],[11.822347,57.6684],[11.821155,57.673522],[11.820299,57.674952],[11.784311,57.674299],[11.773803,57.672622],[11.769533,57.672168],[11.764469,57.671365],[11.758415,57.671453],[11.752305,57.671234],[11.732063,57.664915],[11.704227,57.665158],[11.696054,57.654718],[11.663599,57.647437],[11.643658,57.651861],[11.631263,57.647729],[11.625475,57.648461],[11.617928,57.651156],[11.615747,57.651557],[11.579876,57.652574],[11.589195,57.636517],[11.71244,57.499904],[11.779108,57.499671],[11.818035,57.556421],[11.855593,57.558131],[11.849392,57.564607],[11.861462,57.573396]]]}},{"type":"Feature","id":"mellanomraden.1384042","properties":{"id":"mellanomraden.1384042","nr":"35","namn":"Kungsladugård-Sanna","area_km2":2.9,"stadsomrade":"Centrum"},"geometry":{"type":"Polygon","coordinates":[[[11.921311,57.68734],[11.918543,57.689396],[11.91272,57.692307],[11.912607,57.692203],[11.911309,57.693178],[11.91107,57.693039],[11.910047,57.693522],[11.908385,57.693261],[11.907659,57.693082],[11.903642,57.690991],[11.897724,57.68928],[11.893934,57.68885],[11.897033,57.686994],[11.893874,57.682456],[11.905788,57.681318],[11.904694,57.680573],[11.904991,57.680312],[11.910768,57.679913],[11.912111,57.679268],[11.913101,57.677849],[11.913977,57.677266],[11.918656,57.675376],[11.920585,57.674938],[11.922116,57.674772],[11.923944,57.674806],[11.930055,57.676188],[11.931487,57.675981],[11.93151,57.67624],[11.932185,57.676295],[11.93215,57.675886],[11.932882,57.675779],[11.932968,57.676227],[11.933202,57.676211],[11.933475,57.675872],[11.934259,57.675817],[11.933969,57.677295],[11.934984,57.677961],[11.935135,57.679012],[11.935658,57.680112],[11.935247,57.680798],[11.933932,57.681741],[11.93361,57.682677],[11.93117,57.683618],[11.931416,57.686001],[11.932008,57.68735],[11.931745,57.687455],[11.928168,57.687026],[11.92522,57.687039],[11.921311,57.68734]]]}},{"type":"Feature","id":"mellanomraden.1384043","properties":{"id":"mellanomraden.1384043","nr":"77","namn":"Tuve-Säve","area_km2":48.7,"stadsomrade":"Hisingen"},"geometry":{"type":"Polygon","coordinates":[[[11.868619,57.811411],[11.864101,57.808681],[11.859715,57.805629],[11.85643,57.803994],[11.849363,57.798425],[11.848728,57.797631],[11.845285,57.795847],[11.843416,57.795721],[11.838757,57.79445],[11.836121,57.794193],[11.837776,57.792725],[11.837969,57.792048],[11.837682,57.791753],[11.838859,57.791394],[11.839613,57.790827],[11.847345,57.78076],[11.847342,57.780513],[11.849387,57.77987],[11.852769,57.779502],[11.852328,57.778838],[11.858697,57.777125],[11.862678,57.774777],[11.862506,57.773679],[11.863866,57.771927],[11.862692,57.770625],[11.864576,57.770409],[11.864756,57.767277],[11.867088,57.76673],[11.867127,57.765913],[11.873341,57.764551],[11.875209,57.77001],[11.8754,57.771805],[11.877682,57.771823],[11.880149,57.77085],[11.8807,57.771364],[11.883366,57.7668],[11.885227,57.766444],[11.884099,57.763263],[11.882824,57.761702],[11.880044,57.759042],[11.877756,57.756191],[11.879677,57.756001],[11.881008,57.756663],[11.883952,57.756324],[11.88643,57.756338],[11.891461,57.755163],[11.893822,57.753991],[11.89873,57.750987],[11.900899,57.750005],[11.900788,57.748669],[11.902468,57.747934],[11.902885,57.747498],[11.903976,57.747241],[11.906685,57.747171],[11.907321,57.747636],[11.90821,57.748948],[11.912208,57.747957],[11.9132,57.747273],[11.915183,57.746666],[11.924458,57.745423],[11.925528,57.744476],[11.925186,57.743734],[11.93026,57.742997],[11.929321,57.742295],[11.928403,57.742445],[11.927959,57.742247],[11.930491,57.741759],[11.927762,57.737959],[11.92887,57.735389],[11.93977,57.733987],[11.940423,57.733682],[11.941864,57.734281],[11.942223,57.73287],[11.944649,57.729407],[11.945025,57.729387],[11.945018,57.729579],[11.945744,57.729681],[11.946297,57.72932],[11.94617,57.729672],[11.946984,57.729682],[11.948862,57.729546],[11.948918,57.729182],[11.952044,57.729017],[11.953127,57.731504],[11.953077,57.732558],[11.951267,57.737316],[11.950993,57.741502],[11.950561,57.743292],[11.949684,57.744619],[11.948575,57.748117],[11.947203,57.750719],[11.944081,57.755624],[11.941013,57.759755],[11.939592,57.762603],[11.939163,57.764767],[11.939631,57.768345],[11.943515,57.77322],[11.943402,57.775068],[11.941405,57.778648],[11.941031,57.780156],[11.942544,57.780393],[11.942705,57.780664],[11.9444,57.781481],[11.950024,57.782835],[11.950551,57.783254],[11.952543,57.783263],[11.959219,57.784428],[11.962733,57.786058],[11.962839,57.786385],[11.963533,57.78646],[11.964382,57.786879],[11.962565,57.791107],[11.965749,57.791964],[11.965006,57.792834],[11.965117,57.793708],[11.956558,57.794376],[11.956758,57.798806],[11.96087,57.798358],[11.961855,57.801875],[11.960281,57.80195],[11.959823,57.804554],[11.957001,57.804534],[11.957021,57.804956],[11.958081,57.808674],[11.967672,57.819939],[11.960518,57.821295],[11.951992,57.823373],[11.947739,57.824699],[11.935394,57.828968],[11.927239,57.831155],[11.921351,57.834886],[11.92109,57.835379],[11.920709,57.835303],[11.920199,57.835563],[11.917808,57.835262],[11.914903,57.83462],[11.912792,57.834377],[11.909542,57.833647],[11.909053,57.833697],[11.906939,57.833183],[11.905617,57.833046],[11.901496,57.833793],[11.900488,57.832462],[11.898818,57.831085],[11.894566,57.828965],[11.894787,57.828792],[11.892485,57.827742],[11.890166,57.82631],[11.889511,57.825252],[11.888176,57.824084],[11.881479,57.82039],[11.868619,57.811411]]]}},{"type":"Feature","id":"mellanomraden.1384044","properties":{"id":"mellanomraden.1384044","nr":"71","namn":"Backa","area_km2":18.5,"stadsomrade":"Hisingen"},"geometry":{"type":"Polygon","coordinates":[[[11.991858,57.772141],[11.990322,57.771958],[11.98976,57.772341],[11.964258,57.775943],[11.966589,57.780187],[11.962802,57.782281],[11.961758,57.785578],[11.959456,57.784657],[11.959219,57.784428],[11.952543,57.783263],[11.950551,57.783254],[11.950024,57.782835],[11.9444,57.781481],[11.942705,57.780664],[11.942544,57.780393],[11.941031,57.780156],[11.941405,57.778648],[11.943402,57.775068],[11.943515,57.77322],[11.939631,57.768345],[11.939163,57.764767],[11.939592,57.762603],[11.941013,57.759755],[11.944081,57.755624],[11.947203,57.750719],[11.948575,57.748117],[11.949684,57.744619],[11.950561,57.743292],[11.950993,57.741502],[11.951267,57.737316],[11.953077,57.732558],[11.953127,57.731504],[11.952324,57.729654],[11.955749,57.729987],[11.95886,57.730107],[11.9598,57.729088],[11.960757,57.728438],[11.962893,57.727503],[11.964706,57.727038],[11.971401,57.725851],[11.973432,57.725638],[11.976226,57.725633],[11.979223,57.726051],[11.980855,57.724795],[11.981162,57.724859],[11.985587,57.722678],[11.986679,57.721896],[11.989914,57.724291],[11.991464,57.72593],[11.996261,57.733904],[11.998396,57.737128],[12.001965,57.741826],[12.003188,57.743802],[12.003896,57.745695],[12.003944,57.746449],[12.002994,57.749181],[11.998986,57.757583],[11.998368,57.75948],[11.998544,57.760592],[11.999131,57.761792],[12.000269,57.76281],[12.003425,57.764665],[12.004241,57.765899],[12.005075,57.767943],[12.005714,57.771492],[12.005142,57.77145],[12.005096,57.771756],[12.005575,57.772184],[12.004851,57.77645],[12.003558,57.776494],[12.003513,57.776859],[12.00013,57.777009],[11.999064,57.776679],[11.998204,57.776706],[11.996731,57.772523],[11.995539,57.77243],[11.995324,57.771832],[11.994852,57.771661],[11.993383,57.771812],[11.993467,57.772267],[11.992695,57.771911],[11.992102,57.771963],[11.991858,57.772141]]]}},{"type":"Feature","id":"mellanomraden.1384045","properties":{"id":"mellanomraden.1384045","nr":"32","namn":"Krokslätt-Johanneberg","area_km2":2.5,"stadsomrade":"Centrum"},"geometry":{"type":"Polygon","coordinates":[[[11.986219,57.693483],[11.985479,57.693446],[11.984509,57.694216],[11.982819,57.694001],[11.982496,57.693857],[11.982514,57.693363],[11.981407,57.693129],[11.981663,57.692919],[11.981163,57.692736],[11.98053,57.693177],[11.979385,57.693615],[11.979815,57.695103],[11.979156,57.695362],[11.978485,57.695254],[11.977635,57.69481],[11.973191,57.693621],[11.973818,57.69234],[11.973472,57.690184],[11.972352,57.689476],[11.976292,57.685806],[11.977297,57.685696],[11.977443,57.685534],[11.977067,57.685441],[11.976937,57.685218],[11.978861,57.683483],[11.979179,57.683617],[11.981422,57.680766],[11.982124,57.680603],[11.982323,57.680345],[11.983966,57.680695],[11.984617,57.679529],[11.984056,57.679413],[11.984374,57.678748],[11.984291,57.678055],[11.984712,57.678061],[11.984822,57.67784],[11.985727,57.677974],[11.986775,57.677795],[11.998421,57.678303],[11.999823,57.677805],[12.000003,57.676974],[12.005354,57.677698],[12.004675,57.678366],[12.007542,57.678782],[12.003133,57.684993],[12.002925,57.685216],[12.002684,57.685209],[12.002332,57.68573],[12.002545,57.685638],[11.998395,57.690278],[11.994459,57.68933],[11.987107,57.696186],[11.987197,57.695117],[11.985943,57.694982],[11.986219,57.693483]]]}},{"type":"Feature","id":"mellanomraden.1384046","properties":{"id":"mellanomraden.1384046","nr":"36","namn":"Majorna-Stigberget-Masthugget","area_km2":2.5,"stadsomrade":"Centrum"},"geometry":{"type":"Polygon","coordinates":[[[11.941603,57.701915],[11.928212,57.700794],[11.922948,57.699522],[11.91932,57.698897],[11.914335,57.696566],[11.913149,57.695581],[11.912007,57.695113],[11.912328,57.694792],[11.912062,57.694536],[11.910047,57.693522],[11.91107,57.693039],[11.911309,57.693178],[11.912607,57.692203],[11.91272,57.692307],[11.918543,57.689396],[11.921311,57.68734],[11.922418,57.68721],[11.928168,57.687026],[11.931745,57.687455],[11.933665,57.688822],[11.934487,57.689782],[11.939186,57.690303],[11.939195,57.690498],[11.937948,57.691061],[11.937144,57.692061],[11.941743,57.692748],[11.941798,57.693525],[11.945668,57.693819],[11.946015,57.692548],[11.945723,57.691469],[11.945228,57.691074],[11.946558,57.690985],[11.946521,57.690119],[11.947069,57.689968],[11.947679,57.690016],[11.948202,57.690447],[11.948122,57.696704],[11.946964,57.697693],[11.945281,57.702538],[11.941603,57.701915]]]}},{"type":"Feature","id":"mellanomraden.1384047","properties":{"id":"mellanomraden.1384047","nr":"14","namn":"Södra Angered","area_km2":6.3,"stadsomrade":"Nordost"},"geometry":{"type":"Polygon","coordinates":[[[12.033941,57.766831],[12.037039,57.767006],[12.038371,57.76744],[12.03893,57.768058],[12.039146,57.768757],[12.039553,57.768987],[12.040202,57.76852],[12.040517,57.768494],[12.04222,57.768866],[12.043141,57.768736],[12.044586,57.768839],[12.045343,57.768749],[12.047145,57.769404],[12.048407,57.769539],[12.048932,57.770684],[12.051065,57.770591],[12.052795,57.771103],[12.053609,57.771156],[12.052542,57.773462],[12.051781,57.773423],[12.051737,57.773872],[12.052167,57.775685],[12.053331,57.775855],[12.055027,57.777936],[12.053903,57.777945],[12.053474,57.779067],[12.057393,57.783424],[12.063732,57.784228],[12.063036,57.784717],[12.061927,57.786415],[12.059121,57.788598],[12.059161,57.789197],[12.057074,57.789059],[12.053581,57.789103],[12.053483,57.78861],[12.05272,57.788794],[12.052001,57.788786],[12.050217,57.78837],[12.049298,57.787985],[12.048756,57.788586],[12.046309,57.787918],[12.04593,57.788467],[12.043199,57.787647],[12.041301,57.789105],[12.040936,57.789659],[12.036707,57.788406],[12.033636,57.78716],[12.032446,57.786835],[12.029143,57.786518],[12.026742,57.786802],[12.020358,57.788104],[12.016981,57.78826],[12.016769,57.787885],[12.017158,57.787761],[12.017145,57.787412],[12.018747,57.787117],[12.019221,57.784017],[12.01883,57.782836],[12.015015,57.782176],[12.011929,57.778824],[12.012354,57.776931],[12.013115,57.776474],[12.01294,57.77511],[12.0122,57.774349],[12.013267,57.774116],[12.015171,57.77194],[12.014591,57.771494],[12.013682,57.770199],[12.012164,57.770143],[12.01202,57.769648],[12.005542,57.770356],[12.005241,57.768441],[12.004241,57.765899],[12.003425,57.764665],[12.001538,57.763475],[12.003557,57.761697],[12.005214,57.76061],[12.006251,57.760455],[12.007336,57.760826],[12.008187,57.760864],[12.009579,57.760411],[12.010029,57.760526],[12.010668,57.76118],[12.010862,57.761774],[12.011267,57.762019],[12.012618,57.76227],[12.013609,57.762217],[12.014015,57.761464],[12.014481,57.761378],[12.015257,57.762678],[12.018445,57.764006],[12.018913,57.76446],[12.019364,57.764475],[12.01994,57.764014],[12.020477,57.763949],[12.021181,57.764135],[12.021429,57.764593],[12.024108,57.76463],[12.025868,57.76487],[12.027041,57.765721],[12.030157,57.765877],[12.030256,57.766363],[12.031229,57.766478],[12.032424,57.76735],[12.033941,57.766831]]]}},{"type":"Feature","id":"mellanomraden.1384048","properties":{"id":"mellanomraden.1384048","nr":"50","namn":"Stora Högsbo","area_km2":7.4,"stadsomrade":"Sydväst"},"geometry":{"type":"Polygon","coordinates":[[[11.937833,57.668322],[11.93994,57.675584],[11.939544,57.675615],[11.939173,57.675356],[11.937796,57.675517],[11.934232,57.676413],[11.934259,57.675817],[11.933475,57.675872],[11.933202,57.676211],[11.932968,57.676227],[11.932882,57.675779],[11.93215,57.675886],[11.932185,57.676295],[11.93151,57.67624],[11.931487,57.675981],[11.930055,57.676188],[11.923944,57.674806],[11.922116,57.674772],[11.920585,57.674938],[11.918656,57.675376],[11.915087,57.676792],[11.91504,57.676172],[11.914082,57.676208],[11.913329,57.675953],[11.910389,57.67608],[11.909377,57.675635],[11.909246,57.67502],[11.908471,57.674249],[11.908425,57.673909],[11.908725,57.673897],[11.90856,57.671456],[11.907151,57.671046],[11.906926,57.670597],[11.906359,57.670566],[11.906248,57.670409],[11.906696,57.66971],[11.906585,57.669556],[11.906867,57.669536],[11.907218,57.668981],[11.908021,57.668938],[11.907969,57.668567],[11.904808,57.668743],[11.904524,57.668149],[11.905402,57.668103],[11.905364,57.667896],[11.904486,57.667942],[11.904478,57.667514],[11.905025,57.667387],[11.90456,57.666781],[11.904872,57.666759],[11.904787,57.666016],[11.903992,57.665967],[11.903711,57.666112],[11.903125,57.6658],[11.900321,57.665364],[11.900275,57.664021],[11.897912,57.663427],[11.897767,57.663561],[11.89732,57.66343],[11.898518,57.661452],[11.898753,57.660437],[11.899938,57.660494],[11.901273,57.659001],[11.902138,57.65908],[11.902162,57.659754],[11.902756,57.659663],[11.903789,57.658733],[11.903443,57.658531],[11.90407,57.658188],[11.904582,57.658234],[11.904906,57.657192],[11.906848,57.657366],[11.906896,57.656619],[11.906913,57.657163],[11.911304,57.65742],[11.91144,57.656904],[11.916571,57.657034],[11.917727,57.656622],[11.917874,57.656738],[11.918341,57.656608],[11.919867,57.656762],[11.922416,57.655667],[11.923093,57.655574],[11.923227,57.653853],[11.924188,57.65379],[11.923903,57.652961],[11.924128,57.651861],[11.92384,57.651239],[11.924696,57.651164],[11.924417,57.650096],[11.927256,57.649893],[11.932367,57.649223],[11.933105,57.648836],[11.931672,57.647402],[11.932124,57.647205],[11.932593,57.646479],[11.932532,57.645946],[11.960586,57.645833],[11.960367,57.648992],[11.958253,57.649575],[11.956623,57.649765],[11.956547,57.649989],[11.955593,57.649981],[11.954069,57.651384],[11.953803,57.65247],[11.954707,57.652874],[11.955487,57.652955],[11.956214,57.653324],[11.956233,57.654185],[11.956537,57.654376],[11.956372,57.655052],[11.94672,57.666516],[11.943982,57.666126],[11.943327,57.665853],[11.943537,57.666101],[11.943165,57.666359],[11.942498,57.6664],[11.94127,57.666752],[11.940177,57.668378],[11.937833,57.668322]]]}}]}