{"type":"FeatureCollection","name":"stadsomrade_2021","crs":{"type":"name","properties":{"name":"urn:ogc:def:crs:OGC:1.3:CRS84"}},"features":[{"type":"Feature","properties":{"name":"Stadsområde Sydväst (Gbg)","bra_region_id":8736,"wfs_namn":"Sydväst","wfs_nr":"3"},"geometry":{"type":"Polygon","coordinates":[[[11.855593,57.558131],[11.878032,57.559135],[11.889858,57.562187],[11.898195,57.560831],[11.908734,57.562625],[11.912021,57.562549],[11.919079,57.563383],[11.921085,57.563075],[11.922356,57.56367],[11.924338,57.5633],[11.924769,57.562509],[11.927443,57.562093],[11.92782,57.562336],[11.929127,57.562154],[11.9296,57.56172],[11.930637,57.561769],[11.931684,57.562123],[11.93768,57.56164],[11.939326,57.561753],[11.940313,57.561462],[11.941782,57.56135],[11.943892,57.561397],[11.946919,57.562035],[11.947044,57.561952],[11.94828,57.562597],[11.94915,57.562527],[11.950891,57.562754],[11.952712,57.563095],[11.95303,57.563341],[11.954101,57.56325],[11.954094,57.563016],[11.956017,57.563051],[11.956795,57.563308],[11.957875,57.563987],[11.96383,57.562174],[11.966523,57.562252],[11.966545,57.562457],[11.967299,57.562616],[11.967729,57.563234],[11.968108,57.56345],[11.968252,57.563796],[11.96977,57.563854],[11.970827,57.563484],[11.972262,57.563499],[11.972595,57.563246],[11.974659,57.563023],[11.975185,57.562637],[11.975399,57.561961],[11.976222,57.56165],[11.977452,57.561837],[11.979424,57.563633],[11.979122,57.564015],[11.983521,57.564643],[11.987849,57.56506],[11.98892,57.565366],[11.989175,57.565484],[11.98931,57.56579],[11.990916,57.566231],[11.991395,57.566564],[11.992605,57.566353],[11.994063,57.566566],[11.993906,57.566822],[11.995744,57.567296],[11.996182,57.567714],[11.996756,57.567817],[11.997402,57.567531],[11.998172,57.567421],[11.998404,57.567087],[11.998914,57.566872],[11.999134,57.566593],[11.998943,57.566279],[12.00037,57.566312],[12.003526,57.566774],[12.009298,57.570048],[12.003646,57.577405],[12.001179,57.58119],[11.998631,57.584515],[11.998771,57.584866],[12.00017,57.585187],[12.000108,57.586807],[12.000314,57.587273],[12.000042,57.588035],[11.999234,57.588688],[11.999095,57.590504],[11.998818,57.590755],[11.999239,57.596038],[12.001744,57.599461],[11.9975,57.601479],[11.991858,57.60362],[11.992338,57.60522],[11.9919,57.606252],[11.989261,57.606051],[11.976054,57.622242],[11.963101,57.634434],[11.961312,57.637347],[11.963415,57.637818],[11.962403,57.641676],[11.960677,57.641616],[11.960806,57.644627],[11.960458,57.644657],[11.960674,57.646636],[11.960367,57.648992],[11.958253,57.649575],[11.956623,57.649765],[11.956547,57.649989],[11.955593,57.649981],[11.954069,57.651384],[11.953803,57.65247],[11.954707,57.652874],[11.955487,57.652955],[11.956214,57.653324],[11.956233,57.654185],[11.956537,57.654376],[11.956372,57.655052],[11.94672,57.666516],[11.943982,57.666126],[11.943327,57.665853],[11.943537,57.666101],[11.943165,57.666359],[11.94127,57.666752],[11.940177,57.668378],[11.937833,57.668322],[11.93994,57.675584],[11.939544,57.675615],[11.939173,57.675356],[11.938523,57.675292],[11.934232,57.676413],[11.934259,57.675817],[11.933475,57.675872],[11.933202,57.676211],[11.932968,57.676227],[11.932882,57.675779],[11.93215,57.675886],[11.932185,57.676295],[11.93151,57.67624],[11.931487,57.675981],[11.930055,57.676188],[11.923944,57.674806],[11.922116,57.674772],[11.920585,57.674938],[11.918656,57.675376],[11.913977,57.677266],[11.913101,57.677849],[11.912111,57.679268],[11.910768,57.679913],[11.904991,57.680312],[11.904694,57.680573],[11.905788,57.681318],[11.893874,57.682456],[11.897033,57.686994],[11.893934,57.68885],[11.892562,57.688569],[11.890077,57.687385],[11.889548,57.687337],[11.881948,57.688722],[11.877413,57.688164],[11.871666,57.689286],[11.87058,57.68747],[11.869965,57.686849],[11.868782,57.686209],[11.867171,57.6858],[11.848352,57.685777],[11.845892,57.68555],[11.844663,57.685617],[11.844357,57.686579],[11.843204,57.688088],[11.842202,57.688846],[11.84083,57.689406],[11.840676,57.68975],[11.837023,57.689922],[11.836006,57.688339],[11.835976,57.686688],[11.835801,57.686228],[11.833884,57.684871],[11.832788,57.683858],[11.819508,57.678241],[11.821917,57.676102],[11.820299,57.674952],[11.784311,57.674299],[11.773803,57.672622],[11.769533,57.672168],[11.764469,57.671365],[11.758415,57.671453],[11.752305,57.671234],[11.732063,57.664915],[11.704227,57.665158],[11.698797,57.658029],[11.696054,57.654718],[11.663599,57.647437],[11.643659,57.651861],[11.631263,57.647729],[11.625475,57.648461],[11.617928,57.651156],[11.615747,57.651557],[11.579874,57.652577],[11.589195,57.636517],[11.71244,57.499904],[11.779108,57.499671],[11.818035,57.556421],[11.855593,57.558131]]]}},{"type":"Feature","properties":{"name":"Stadsområde Hisingen (Gbg)","bra_region_id":8734,"wfs_namn":"Hisingen","wfs_nr":"4"},"geometry":{"type":"Polygon","coordinates":[[[11.901893,57.690484],[11.904743,57.69148],[11.907659,57.693082],[11.910047,57.693522],[11.91113,57.693947],[11.912328,57.694792],[11.912007,57.695113],[11.913149,57.695581],[11.914335,57.696566],[11.91932,57.698897],[11.922948,57.699522],[11.928212,57.700794],[11.943083,57.702071],[11.949854,57.703648],[11.951317,57.704216],[11.956084,57.707059],[11.959835,57.710499],[11.961675,57.711972],[11.971315,57.716515],[11.986679,57.721896],[11.988166,57.722872],[11.989914,57.724291],[11.991464,57.72593],[11.993495,57.729036],[11.996261,57.733904],[11.996529,57.734111],[11.998396,57.737128],[12.001118,57.740537],[12.003188,57.743802],[12.003896,57.745695],[12.003944,57.746449],[12.002617,57.750121],[12.001999,57.751089],[11.998986,57.757583],[11.998412,57.759055],[11.998407,57.759965],[11.998796,57.761267],[11.99952,57.76222],[12.000364,57.762872],[12.003425,57.764665],[12.004241,57.765899],[12.005075,57.767943],[12.005714,57.771492],[12.005142,57.77145],[12.005096,57.771756],[12.005333,57.7718],[12.005575,57.772184],[12.004623,57.777677],[12.004478,57.779774],[12.005227,57.782537],[12.006572,57.785423],[12.008334,57.788197],[12.009089,57.790076],[12.010749,57.792133],[12.012149,57.794316],[12.013902,57.800001],[12.01405,57.803768],[12.013923,57.805288],[12.014035,57.813242],[12.013573,57.815163],[12.012294,57.819028],[12.010338,57.823339],[12.009988,57.825628],[12.008762,57.82846],[12.008719,57.83274],[12.010359,57.842701],[12.010843,57.844505],[12.010097,57.845283],[12.009235,57.848167],[12.007451,57.852547],[12.008173,57.854595],[12.011522,57.857559],[12.013761,57.860825],[12.008855,57.860436],[12.003468,57.860367],[12.001735,57.860002],[11.99739,57.859985],[11.996019,57.860307],[11.995125,57.860803],[11.994893,57.861169],[11.994216,57.861679],[11.990166,57.863339],[11.989362,57.863064],[11.988699,57.862602],[11.986237,57.862466],[11.983682,57.862803],[11.976431,57.86447],[11.973611,57.864792],[11.969685,57.864316],[11.968057,57.863697],[11.966238,57.862599],[11.965136,57.860039],[11.963488,57.858374],[11.959775,57.855551],[11.958422,57.85519],[11.956141,57.852738],[11.955834,57.851827],[11.954169,57.849176],[11.952679,57.847729],[11.951363,57.847102],[11.949285,57.846895],[11.945031,57.848482],[11.942718,57.848347],[11.937875,57.847161],[11.936006,57.846417],[11.932647,57.844608],[11.930504,57.843956],[11.926875,57.843466],[11.924367,57.843398],[11.921557,57.843546],[11.917898,57.84422],[11.913021,57.845617],[11.911358,57.84584],[11.910209,57.845612],[11.907889,57.845579],[11.905836,57.844965],[11.904748,57.844369],[11.903584,57.843252],[11.90309,57.841839],[11.903129,57.837319],[11.902774,57.836134],[11.901286,57.833446],[11.900488,57.832462],[11.899345,57.831451],[11.894566,57.828965],[11.894787,57.828792],[11.892485,57.827742],[11.890166,57.82631],[11.889511,57.825252],[11.888176,57.824084],[11.881479,57.82039],[11.868619,57.811411],[11.864101,57.808681],[11.859715,57.805629],[11.85643,57.803994],[11.849363,57.798425],[11.848728,57.797631],[11.845285,57.795847],[11.843416,57.795721],[11.838757,57.79445],[11.833674,57.794109],[11.828789,57.792254],[11.82829,57.79185],[11.821801,57.790627],[11.808812,57.789532],[11.731617,57.771096],[11.719978,57.747772],[11.706798,57.73327],[11.698295,57.721731],[11.698911,57.715824],[11.694331,57.70693],[11.690941,57.702539],[11.695773,57.690458],[11.697892,57.673799],[11.704227,57.665158],[11.732063,57.664915],[11.752305,57.671234],[11.758415,57.671453],[11.764469,57.671365],[11.769533,57.672168],[11.773803,57.672622],[11.784311,57.674299],[11.820299,57.674952],[11.821917,57.676102],[11.819508,57.678241],[11.832788,57.683858],[11.833884,57.684871],[11.835801,57.686228],[11.835976,57.686688],[11.836006,57.688339],[11.837023,57.689922],[11.840676,57.68975],[11.84083,57.689406],[11.842202,57.688846],[11.843204,57.688088],[11.844357,57.686579],[11.844663,57.685617],[11.846781,57.685561],[11.848352,57.685777],[11.866043,57.685712],[11.868035,57.685973],[11.869671,57.686646],[11.870536,57.687411],[11.871666,57.689286],[11.877413,57.688164],[11.881948,57.688722],[11.889548,57.687337],[11.890077,57.687385],[11.892562,57.688569],[11.897724,57.68928],[11.901893,57.690484]]]}},{"type":"Feature","properties":{"name":"Stadsområde Centrum (Gbg)","bra_region_id":8733,"wfs_namn":"Centrum","wfs_nr":"2"},"geometry":{"type":"Polygon","coordinates":[[[11.984822,57.67784],[11.985727,57.677974],[11.986775,57.677795],[11.998421,57.678303],[11.999825,57.677792],[11.99983,57.677241],[11.999994,57.676968],[12.005354,57.677697],[12.004676,57.678366],[12.007542,57.678782],[12.007227,57.679232],[12.008349,57.679358],[12.008831,57.678594],[12.009375,57.678602],[12.009933,57.677809],[12.013393,57.677633],[12.013488,57.677515],[12.016835,57.677459],[12.018435,57.675783],[12.020124,57.674636],[12.022685,57.673194],[12.023343,57.673455],[12.023224,57.675574],[12.025869,57.675458],[12.027111,57.675738],[12.029233,57.675311],[12.031007,57.675425],[12.030995,57.675234],[12.036516,57.674992],[12.042359,57.676286],[12.049494,57.675981],[12.075818,57.68389],[12.088667,57.682167],[12.074651,57.701938],[12.07414,57.701902],[12.055723,57.728601],[12.05489,57.730543],[12.042817,57.727925],[12.037666,57.726543],[12.02562,57.72411],[12.02244,57.723965],[12.021473,57.724166],[12.015949,57.724428],[12.009259,57.723472],[12.008952,57.72338],[12.009136,57.722974],[12.005795,57.722229],[12.004864,57.721794],[12.003011,57.72067],[12.001146,57.719237],[11.995239,57.715867],[11.996065,57.714117],[11.994579,57.713882],[11.994836,57.714848],[11.993344,57.716769],[11.992103,57.717366],[11.990974,57.718179],[11.986679,57.721896],[11.971315,57.716515],[11.961675,57.711972],[11.959835,57.710499],[11.956084,57.707059],[11.951317,57.704216],[11.949854,57.703648],[11.943083,57.702071],[11.928212,57.700794],[11.922948,57.699522],[11.91932,57.698897],[11.914335,57.696566],[11.913149,57.695581],[11.912007,57.695113],[11.912328,57.694792],[11.91113,57.693947],[11.910047,57.693522],[11.907659,57.693082],[11.903642,57.690991],[11.897724,57.68928],[11.893934,57.68885],[11.897033,57.686994],[11.893874,57.682456],[11.905788,57.681318],[11.904694,57.680573],[11.904991,57.680312],[11.910768,57.679913],[11.912111,57.679268],[11.913101,57.677849],[11.913977,57.677266],[11.918656,57.675376],[11.920585,57.674938],[11.922116,57.674772],[11.923944,57.674806],[11.930055,57.676188],[11.931487,57.675981],[11.93151,57.67624],[11.932185,57.676295],[11.93215,57.675886],[11.932882,57.675779],[11.932968,57.676227],[11.933202,57.676211],[11.933475,57.675872],[11.934259,57.675817],[11.934232,57.676413],[11.938523,57.675292],[11.939173,57.675356],[11.939544,57.675615],[11.93994,57.675584],[11.937833,57.668322],[11.940177,57.668378],[11.94127,57.666752],[11.943165,57.666359],[11.943537,57.666101],[11.943327,57.665853],[11.943982,57.666126],[11.94672,57.666516],[11.949221,57.663544],[11.960136,57.666959],[11.959252,57.667782],[11.969478,57.670892],[11.965991,57.672788],[11.96882,57.674386],[11.96762,57.674973],[11.967946,57.675208],[11.967691,57.675306],[11.969698,57.676909],[11.969224,57.676946],[11.969555,57.677462],[11.971679,57.677066],[11.984151,57.67767],[11.984822,57.67784]]]}},{"type":"Feature","properties":{"name":"Stadsområde Nordost (Gbg)","bra_region_id":8735,"wfs_namn":"Nordost","wfs_nr":"1"},"geometry":{"type":"Polygon","coordinates":[[[12.060007,57.841098],[12.053243,57.839128],[12.043683,57.83495],[12.047194,57.830611],[12.047729,57.829197],[12.04899,57.829264],[12.049367,57.82912],[12.048426,57.828546],[12.048858,57.828146],[12.050006,57.8279],[12.052036,57.826588],[12.048416,57.82124],[12.046897,57.820674],[12.045965,57.82142],[12.043176,57.822097],[12.042012,57.823557],[12.0406,57.824196],[12.038774,57.825861],[12.037416,57.826403],[12.036251,57.825778],[12.032622,57.821127],[12.03003,57.820828],[12.030257,57.818079],[12.028517,57.815852],[12.029097,57.814548],[12.027371,57.81392],[12.027732,57.812972],[12.026997,57.812585],[12.025528,57.812414],[12.024632,57.811932],[12.023053,57.811881],[12.021972,57.812021],[12.018886,57.811807],[12.017636,57.810598],[12.016886,57.810632],[12.016695,57.810274],[12.016682,57.809509],[12.017166,57.808228],[12.017104,57.807836],[12.016719,57.807328],[12.016863,57.807292],[12.016649,57.806659],[12.016165,57.806654],[12.016111,57.80616],[12.013927,57.80619],[12.01405,57.803768],[12.013902,57.800001],[12.012582,57.795507],[12.012149,57.794316],[12.010749,57.792133],[12.009089,57.790076],[12.008334,57.788197],[12.006572,57.785423],[12.005227,57.782537],[12.004478,57.779774],[12.004623,57.777677],[12.005575,57.772184],[12.005333,57.7718],[12.005096,57.771756],[12.005142,57.77145],[12.005714,57.771492],[12.005075,57.767943],[12.004241,57.765899],[12.003425,57.764665],[12.000364,57.762872],[11.99952,57.76222],[11.998796,57.761267],[11.998407,57.759965],[11.998412,57.759055],[11.998986,57.757583],[12.001999,57.751089],[12.002617,57.750121],[12.003253,57.748534],[12.003944,57.746449],[12.003896,57.745695],[12.003188,57.743802],[12.001965,57.741826],[12.001118,57.740537],[11.998396,57.737128],[11.996529,57.734111],[11.996261,57.733904],[11.993495,57.729036],[11.991464,57.72593],[11.989914,57.724291],[11.988166,57.722872],[11.986679,57.721896],[11.990974,57.718179],[11.992103,57.717366],[11.993344,57.716769],[11.994836,57.714848],[11.994579,57.713882],[11.996065,57.714117],[11.995239,57.715867],[12.001146,57.719237],[12.003011,57.72067],[12.004864,57.721794],[12.005795,57.722229],[12.009136,57.722974],[12.008952,57.72338],[12.009944,57.723657],[12.016783,57.724455],[12.021473,57.724166],[12.02244,57.723965],[12.024674,57.723994],[12.037666,57.726543],[12.042817,57.727925],[12.05489,57.730543],[12.054103,57.733865],[12.067178,57.734947],[12.071536,57.734866],[12.074899,57.735041],[12.076884,57.734784],[12.078915,57.735206],[12.080679,57.735923],[12.078759,57.74115],[12.079674,57.741409],[12.079483,57.741953],[12.078804,57.747116],[12.07968,57.750356],[12.079349,57.752567],[12.079522,57.753204],[12.079358,57.753892],[12.08006,57.754796],[12.082677,57.754695],[12.082798,57.755585],[12.08261,57.756407],[12.078198,57.761816],[12.096875,57.765523],[12.114026,57.772396],[12.133855,57.773766],[12.164084,57.77507],[12.173674,57.775942],[12.183454,57.780005],[12.201,57.784943],[12.203614,57.786148],[12.202899,57.786556],[12.202726,57.786892],[12.203835,57.788843],[12.207352,57.789943],[12.207749,57.789386],[12.208565,57.78919],[12.208,57.789871],[12.208301,57.790005],[12.211104,57.790098],[12.210772,57.790728],[12.209492,57.791858],[12.209366,57.792338],[12.210805,57.792765],[12.212388,57.790948],[12.212866,57.790813],[12.214196,57.791031],[12.214815,57.791326],[12.215407,57.793125],[12.216648,57.794174],[12.217494,57.79401],[12.218484,57.793207],[12.219426,57.792956],[12.22022,57.793332],[12.222619,57.793433],[12.223199,57.793189],[12.228955,57.794221],[12.229908,57.794511],[12.231318,57.794605],[12.231406,57.794918],[12.23216,57.795415],[12.234475,57.795545],[12.235853,57.795232],[12.241611,57.796359],[12.224478,57.810895],[12.220967,57.812028],[12.214409,57.81384],[12.213548,57.813877],[12.210407,57.812814],[12.204708,57.816003],[12.204624,57.816359],[12.205837,57.816304],[12.206052,57.816462],[12.205307,57.816574],[12.206016,57.81672],[12.20579,57.816962],[12.205984,57.817088],[12.205855,57.817306],[12.206058,57.817494],[12.205015,57.819797],[12.203506,57.820962],[12.202667,57.82127],[12.201382,57.82215],[12.200418,57.822517],[12.200325,57.823099],[12.199859,57.823714],[12.199191,57.823991],[12.19878,57.824554],[12.193765,57.825702],[12.191956,57.834246],[12.170154,57.855684],[12.156581,57.859983],[12.155137,57.860666],[12.153547,57.860957],[12.151199,57.861723],[12.149052,57.862665],[12.148448,57.863096],[12.147436,57.863227],[12.146182,57.864043],[12.146181,57.864686],[12.144497,57.864775],[12.141932,57.865991],[12.139496,57.86582],[12.137548,57.866004],[12.135901,57.865415],[12.130102,57.864738],[12.126587,57.863581],[12.125771,57.862103],[12.125217,57.861691],[12.093254,57.851436],[12.079033,57.846129],[12.070394,57.843798],[12.061646,57.841647],[12.060007,57.841098]]]}}]}